Input Business Name,Input Phone,Input Address,API Name,API Phone,API Address,Name Match,Address Match,Phone Match,Name Similarity,Address Similarity,Phone Similarity,Overall NAP Status
NY Disc Chiropractic (노던 카이로 통증병원),+1 732-462-0049,"154-19 Northern Blvd #2F-5, Flushing, USA",NY Disc Chiropractic (노던 카이로 통증병원),(718) 746-4919,"154-19 Northern Blvd #2F-5, Flushing, NY 11354, USA",Yes,Yes,No,1.0,0.894,0.0,SUCCESS - Name & Address match (Phone missing/different)
Total Life Chiropractic & Wellness,+1 609-161-4252,"961 NJ-10, Randolph, USA",Total Life Chiropractic & Wellness,(973) 252-6040,"961 NJ-10, Randolph, NJ 07869, USA",Yes,No,No,1.0,0.83,0.0,PARTIAL - Only Name matches
Patriot Chiropractic Center,+1 732-661-0330,"3915 Blenheim Blvd STE 22C, Fairfax, USA",Patriot Chiropractic Center,(703) 385-7007,"3915 Blenheim Blvd STE 22C, Fairfax, VA 22030, USA",Yes,Yes,No,1.0,1.0,0.0,SUCCESS - Name & Address match (Phone missing/different)
Natural Health Chiro Center,+1 732-634-5155,"225 Hamilton St, Bound Brook, USA",Natural Health Chiro Center,(732) 271-0275,"225 Hamilton St, Bound Brook, NJ 08805, USA",Yes,Yes,No,1.0,0.873,0.0,SUCCESS - Name & Address match (Phone missing/different)
Chai Kings - Anna Nagar,+91 44 4356 0066,"995a 11th Main Road, Chennai, USA",Chai Kings - Anna Nagar,044 4356 0066,"995a, 11th Main Rd, Ranganathan Garden, Anna Nagar, Chennai, Tamil Nadu 600040, India",Yes,No,Yes,1.0,0.667,1.0,PARTIAL - Name & Phone match (Address different)
Fusion Social,+1 331-252-4044,"4405 Winfield Road, Warrenville, USA",Fusion Social,(331) 252-4044,"4405 Winfield Rd, Warrenville, IL 60555, USA",Yes,Yes,Yes,1.0,0.853,1.0,SUCCESS - All NAP data matches
Affordable Chiropractic,+1 908-754-6888,"736 Mountain Blvd, Watchung, USA",Affordable Chiropractic,(908) 754-6888,"736 Mountain Blvd, Watchung, NJ 07069, USA",Yes,Yes,Yes,1.0,1.0,1.0,SUCCESS - All NAP data matches
Solutions Chiropractic,+1 609-083-5376,"50A US-9, Morganville, USA",Solutions Chiropractic,(732) 727-0690,"50A US-9, Morganville, NJ 07751, USA",Yes,No,No,1.0,0.842,0.0,PARTIAL - Only Name matches
Hands On Health testpractic  LLC,+1 732-389-8000,USA,Hands on Health Physical Therapy and Wellness LLC,(504) 481-9688,"100 W Harrison Ave Suite 201, New Orleans, LA 70124, USA",No,Yes,No,0.575,1.0,0.0,FAIL - Significant NAP inconsistencies
Dynamic testpractic LLC,+1 732-545-5999,USA,Dynamic Analytics & Test Inc,(703) 351-0088,"2107 Wilson Blvd, Arlington, VA 22201, USA",No,Yes,No,0.531,1.0,0.0,FAIL - Significant NAP inconsistencies
Strive2Move testpractor,+1 908-547-0729,USA,,,,No,No,No,0.0,0.0,0.0,FAIL - No results found
Time For A Bagel - Master Do not Delete or Alter,+1 973-984-5885,"680 Speedwell Avenue, Morris Plains, USA",Time For A Bagel,(973) 984-5885,"680 Speedwell Ave, Morris Plains, NJ 07950, USA",Yes,Yes,Yes,0.516,0.854,1.0,SUCCESS - All NAP data matches
Sparrow Coffee,+1 306-664-2080,"536 2nd Avenue North #120, Saskatoon, USA",Sparrow Coffee,(306) 664-2080,"536 2nd Ave N #120, Saskatoon, SK S7K 2C5, Canada",Yes,No,Yes,1.0,0.723,1.0,PARTIAL - Name & Phone match (Address different)
Custom Domain Form Site - Do Not Delete Without Consulting Badger,3062279834,"1 Aspen Pl, Humboldt, USA",,,,No,No,No,0.0,0.0,0.0,FAIL - No results found
John D Wood & Co. Estate Agents Primrose Hill,+44 20 3151 9463,"166 Regent's Park Road, London, USA",John D Wood & Co. Estate Agents Primrose Hill,020 3151 9463,"166 Regent's Park Rd, London NW1 8XN, UK",Yes,No,Yes,1.0,0.817,1.0,PARTIAL - Name & Phone match (Address different)
Nucor Steel Kankakee Inc,+1 815-937-3131,"1 Nucor Way, Bourbonnais, USA",Nucor Steel Kankakee Inc,(815) 937-3131,"1 Nucor Way, Bourbonnais, IL 60914, USA",Yes,Yes,Yes,1.0,0.857,1.0,SUCCESS - All NAP data matches
McDonald's,+1 814-943-6677,"407 East Plank Road, Altoona, USA",McDonald's,(814) 943-6677,"407 E Plank Rd, Altoona, PA 16602, USA",Yes,No,Yes,1.0,0.788,1.0,PARTIAL - Name & Phone match (Address different)
John D Wood & Co. Estate Agents Beckenham,+44 20 8196 9935,"60 High Street, Beckenham, USA",John D Wood & Co. Estate Agents Beckenham,020 8196 9935,"60 High St, Beckenham BR3 1AY, UK",Yes,No,Yes,1.0,0.746,1.0,PARTIAL - Name & Phone match (Address different)
Tandoor Mangalore,+91 77606 09090,"Jail Road, Mangaluru, USA",Tandoor Mangalore,077606 09090,"Jail Rd, Boloor, Kodailbail, Mangaluru, Karnataka 575003, India",Yes,No,Yes,1.0,0.5,1.0,PARTIAL - Name & Phone match (Address different)
another round,+1 214-233-6316,"660 Fort Worth Avenue Suite 100, Dallas, USA",another round,(214) 233-6316,"660 Fort Worth Ave Suite 100, Dallas, TX 75208, USA",Yes,Yes,Yes,1.0,0.875,1.0,SUCCESS - All NAP data matches
Kal Tire,+1 306-242-5050,"111 Idylwyld Dr N, Saskatoon, USA",Kal Tire,(306) 242-5050,"111 Idylwyld Dr N, Saskatoon, SK S7L 0Y6, Canada",Yes,No,Yes,1.0,0.789,1.0,PARTIAL - Name & Phone match (Address different)
alpha test,nan,USA,UES,(972) 620-8911,"2209 Wisconsin St, Dallas, TX 75229, USA",No,Yes,No,0.308,1.0,0.0,FAIL - Significant NAP inconsistencies
Adventure Aquarium - Test by Ganesh,+1 844-474-3474,"1 Riverside Drive, Camden, USA",,,,No,No,No,0.0,0.0,0.0,FAIL - No results found
Village Family Chiro LLC: Fedich James R DC,+1 732-462-6688,"1500 County Rd 517 Suite 105, Allamuchy Township, USA",Village Family Chiro LLC: Fedich James R DC,(908) 813-8200,"1500 County Rd 517 Suite 105, Allamuchy Township, NJ 07820, USA",Yes,Yes,No,1.0,0.919,0.0,SUCCESS - Name & Address match (Phone missing/different)
AdaptiveRx (formerly Pure Health Services),+1 908-754-6888,"280 NJ-35 #204, Red Bank, USA",AdaptiveRx (formerly Pure Health Services),(732) 747-0083,"280 NJ-35 #204, Red Bank, NJ 07701, USA",Yes,Yes,No,1.0,0.852,0.0,SUCCESS - Name & Address match (Phone missing/different)
Flourishing Family Chiropractic,+1 732-583-0600,"68 Washington St, Clark, USA",Flourishing Family Chiropractic,(908) 653-0000,"68 Washington St, Clark, NJ 07066, USA",Yes,Yes,No,1.0,0.852,0.0,SUCCESS - Name & Address match (Phone missing/different)
Next Level Chiropractic and Nutrition,+1 732-389-8000,"40 Broad St SUITE 101, Eatontown, USA",Next Level Chiropractic and Nutrition,(732) 389-8000,"40 Broad St SUITE 101, Eatontown, NJ 07724, USA",Yes,Yes,Yes,1.0,0.886,1.0,SUCCESS - All NAP data matches
King George Chiropractic,+1 732-389-8000,"309 Rock Ave, Green Brook Township, USA",King George Chiropractic,(732) 968-3900,"309 Rock Ave, Green Brook Township, NJ 08812, USA",Yes,Yes,No,1.0,1.0,0.0,SUCCESS - Name & Address match (Phone missing/different)
Deitch Family Chiropractic & Wellness Center,+1 908-967-4676,"50 Princeton Hightstown Rd, Princeton Junction, USA",Deitch Family Chiropractic & Wellness Center,(609) 897-1200,"50 Princeton Hightstown Rd, Princeton Junction, NJ 08550, USA",Yes,Yes,No,1.0,0.916,0.0,SUCCESS - Name & Address match (Phone missing/different)
Chiropractic Wellness Center of Baltimore,+1 732-704-3459,"8100 Sandpiper Cir STE 102, Nottingham, USA",Chiropractic Wellness Center of Baltimore,(410) 529-8010,"8100 Sandpiper Cir STE 102, Nottingham, MD 21236, USA",Yes,Yes,No,1.0,1.0,0.0,SUCCESS - Name & Address match (Phone missing/different)
Align Chiropractic and Wellness Center,+1 908-967-4676,"1801 E 2nd St, Scotch Plains, USA",Align Chiropractic and Wellness Center,(908) 967-4676,"1801 E 2nd St, Scotch Plains, NJ 07076, USA",Yes,Yes,Yes,1.0,0.873,1.0,SUCCESS - All NAP data matches
"Ty Cobb Services, Inc.",7723885966,"13210 81st St, Fellsmere, USA",Ty Cobb Services Inc,(772) 388-5966,"13210 81st St, Fellsmere, FL 32948, USA",Yes,Yes,Yes,1.0,0.857,1.0,SUCCESS - All NAP data matches
Integrative testpractic Center,+1 908-272-4011,USA,"Integrative Health Practices, LLC",(410) 648-2555,"9501 Old Annapolis Rd Suite 205, Ellicott City, MD 21042, USA",No,Yes,No,0.71,1.0,0.0,FAIL - Significant NAP inconsistencies
Grunstein Family testpractic Center,+1 609-200-3690,USA,Grunstein Family Chiropractic Center,(973) 640-0760,"340 E Northfield Rd # 2E, Livingston, NJ 07039, USA",Yes,Yes,No,0.873,1.0,0.0,SUCCESS - Name & Address match (Phone missing/different)
Rick Caban,+1 718-275-1316,USA,Rick Caban,(732) 972-6010,"186 County Rte 520 #1, Morganville, NJ 07751, USA",Yes,Yes,No,1.0,1.0,0.0,SUCCESS - Name & Address match (Phone missing/different)
New Providence testpractic,+1 908-547-0729,USA,New Providence,,"New Providence, NJ, USA",Yes,Yes,No,0.7,1.0,0.0,SUCCESS - Name & Address match (Phone missing/different)
SuperFast Kitchen & Bath – Grand Junction,+1 970-200-2140,"751 Horizon Court #115, Grand Junction, USA",SuperFast Kitchen & Bath – Grand Junction,(970) 200-2140,"751 Horizon Ct #115, Grand Junction, CO 81506, USA",Yes,Yes,Yes,1.0,0.86,1.0,SUCCESS - All NAP data matches
Saskatoon Inn & Conference Centre,+1 306-242-1440,"2002 Airport Drive, Saskatoon, USA",Saskatoon Inn & Conference Centre,(306) 242-1440,"2002 Airport Dr, Saskatoon, SK S7L 6M4, Canada",Yes,No,Yes,1.0,0.747,1.0,PARTIAL - Name & Phone match (Address different)
Chiropractic Approach,+1 718-275-1313,"95-08 Queens Blvd, Rego Park, USA",Chiropractic Approach,(718) 275-1313,"95-08 Queens Blvd, Rego Park, NY 11374, USA",Yes,Yes,Yes,1.0,0.873,1.0,SUCCESS - All NAP data matches
Back In Action Chiropractic,+1 609-434-0318,"1330 Parkway Ave #11, Ewing Township, USA",Back In Action Chiropractic,(609) 434-0318,"1330 Parkway Ave #11, Ewing Township, NJ 08628, USA",Yes,Yes,Yes,1.0,0.894,1.0,SUCCESS - All NAP data matches
Atlas Chiropractic Wellness Center,+1 201-250-6122,"106 Center St, Garwood, USA",Atlas Chiropractic Wellness Center,(201) 250-6122,"106 Center St, Garwood, NJ 07027, USA",Yes,Yes,Yes,1.0,0.847,1.0,SUCCESS - All NAP data matches
Multiplaza,+503 2507 9800,"Carretera Panamericana, San Salvador, USA",Multiplaza,2507 9800,"Carr. Panamericana, San Salvador, El Salvador",Yes,No,Yes,1.0,0.815,0.9,PARTIAL - Name & Phone match (Address different)
The Mortgage Group: Lori Emde,+1 306-222-4311,"1106 8 Street East, Saskatoon, USA",The Mortgage Group: Lori Emde,(306) 222-4311,"1106 8 St E, Saskatoon, SK S7H 0S4, Canada",Yes,No,Yes,1.0,0.676,1.0,PARTIAL - Name & Phone match (Address different)
John D Wood & Co. Estate Agents Docklands & City,+44 20 3369 0614,"37b Millharbour Unit 2, London, USA",John D Wood & Co. Estate Agents Docklands & City,020 3369 0614,"Unit 2, 37b Millharbour, London E14 9TX, UK",Yes,No,Yes,1.0,0.667,1.0,PARTIAL - Name & Phone match (Address different)
Quality of Life Chiropractic Center,+1 732-704-3459,"44 Monmouth Rd, Eatontown, USA",Quality of Life Chiropractic Center,(732) 704-3459,"44 Monmouth Rd, Eatontown, NJ 07724, USA",Yes,Yes,Yes,1.0,0.862,1.0,SUCCESS - All NAP data matches
Christopher Spinella,+1 732-462-0049,"420 NJ-34 Suite 331, Colts Neck, USA",Christopher Spinella,(732) 462-0049,"420 NJ-34 Suite 331, Colts Neck, NJ 07722, USA",Yes,Yes,Yes,1.0,0.883,1.0,SUCCESS - All NAP data matches
alpha test,nan,USA,UES,(972) 620-8911,"2209 Wisconsin St, Dallas, TX 75229, USA",No,Yes,No,0.308,1.0,0.0,FAIL - Significant NAP inconsistencies
Don't delete without contacting dallas,+1 306-242-5411,"119 33rd Street West, Saskatoon, USA",,,,No,No,No,0.0,0.0,0.0,FAIL - No results found
Learn Physics with Niranjan,9972583259,"Kuriyala Padu House, Mangalore, USA",VIVIDYA Mangalore - Coaching for NEET & JEE in Mangalore,098199 81671,"2nd Floor, Yenepoya Mall, Kadri Rd, near Mangala Kidney Foundation, Mallikatte, Kadri, Mangaluru, Karnataka 575002, India",No,No,No,0.228,0.219,0.0,FAIL - Significant NAP inconsistencies
Dr. Java's Coffee House Saskatoon,nan,USA,Dr. Java's Coffee House Saskatoon,(306) 952-0770,"100 2 Ave S #1, Saskatoon, SK S7K 1K5, Canada",Yes,No,No,1.0,0.091,0.0,PARTIAL - Only Name matches
West Park Chiropractic Ctr.,+1 732-661-0330,"257 Monmouth Rd Suite 5 Bldg B, Oakhurst, USA",West Park Chiropractic Ctr.,(732) 517-1090,"257 Monmouth Rd Suite 5 Bldg B, Oakhurst, NJ 07755, USA",Yes,Yes,No,1.0,0.905,0.0,SUCCESS - Name & Address match (Phone missing/different)
Active Release and Chiropractic Center: Dr. Anthony Criscuolo  DC,+1 732-280-1800,"3350 NJ-138 Building 2 Suite 227, Wall Township, USA","Active Release and Chiropractic Center: Dr. Anthony Criscuolo, DC",(732) 280-1800,"3350 NJ-138 Building 2 Suite 227, Wall Township, NJ 07719, USA",Yes,Yes,Yes,1.0,0.917,1.0,SUCCESS - All NAP data matches
About You Chiropractic,+1 732-583-0600,"245 Main St Suite 2M, Matawan, USA",About You Chiropractic,(732) 583-0600,"245 Main St Suite 2M, Matawan, NJ 07747, USA",Yes,Yes,Yes,1.0,0.877,1.0,SUCCESS - All NAP data matches
Chiropractic Orthopedic Associates,+1 732-462-6687,"3499 US-9 Ste 2B, Freehold, USA",Chiropractic Orthopedic Associates,(732) 431-1126,"3499 US-9 Ste 2B, Freehold, NJ 07728, USA",Yes,Yes,No,1.0,0.866,0.0,SUCCESS - Name & Address match (Phone missing/different)
Limitless Spine and Joint Care (Formerly Sadon Chiropractic & Rehabilitation Center),+1 732-574-2228,"186 County Rte 520 #1, Morganville, USA",Limitless Spine and Joint Care (Formerly Sadon Chiropractic & Rehabilitation Center),(732) 972-6010,"186 County Rte 520 #1, Morganville, NJ 07751, USA",Yes,Yes,No,1.0,0.889,0.0,SUCCESS - Name & Address match (Phone missing/different)
Advanced testpractic Center of Woodbridge  INC,+1 732-634-5155,USA,"Advanced Chiropractic Center of Woodbridge, INC",(732) 634-5155,"415 Avenel St, Avenel, NJ 07001, USA",Yes,Yes,Yes,0.901,1.0,1.0,SUCCESS - All NAP data matches
testpractic Approach,+1 718-275-1313,USA,AJ Tutoring,(925) 278-6311,"901 Moraga Rd C, Lafayette, CA 94549, USA",No,Yes,No,0.258,1.0,0.0,FAIL - Significant NAP inconsistencies
Quality of Life testpractic Center,+1 732-704-3459,USA,Quality of Life Medical Center,(520) 733-2250,"5350 E Erickson Dr, Tucson, AZ 85712, USA",Yes,Yes,No,0.812,1.0,0.0,SUCCESS - Name & Address match (Phone missing/different)
Get Adjusted testpractic PC,+1 609-448-6741,USA,,,,No,No,No,0.0,0.0,0.0,FAIL - No results found
testpractic Naturally  PC,+1 732-704-3459,USA,,,,No,No,No,0.0,0.0,0.0,FAIL - No results found
Pat Drinke Mall,3064722345,"123 Manin St, Carlyle, USA",,,,No,No,No,0.0,0.0,0.0,FAIL - No results found
KPAI,3052276000,"7950 NW 53rd St Ste 337, Miami, USA",,,,No,No,No,0.0,0.0,0.0,FAIL - No results found
"4.0 Air, Inc",9549984022,"2200 N Commerce Pkwy Ste 200, Weston, USA",AIR BY US,(954) 881-2665,"2950 Glades Cir STE 20, Weston, FL 33327, USA",No,No,No,0.4,0.593,0.0,FAIL - Significant NAP inconsistencies
Chiropractic Naturally  PC,+1 732-704-3459,"740 NJ-34 Suite D, Matawan, USA","Chiropractic Naturally, PC",(732) 583-8358,"740 NJ-34 Suite D, Matawan, NJ 07747, USA",Yes,Yes,No,1.0,0.866,0.0,SUCCESS - Name & Address match (Phone missing/different)
Jersey Spine And Wellness,+1 908-272-4010,"35 Beaverson Blvd B, Brick Township, USA",Jersey Spine And Wellness,(732) 255-1910,"35 Beaverson Blvd B, Brick Township, NJ 08723, USA",Yes,Yes,No,1.0,0.894,0.0,SUCCESS - Name & Address match (Phone missing/different)
Dairy Farm Nature Park,+65 1800 471 7300,"100 Dairy Farm Road, Singapore, USA",Dairy Farm Nature Park,1800 471 7300,"100 Dairy Farm Rd, Singapore 679057",Yes,No,Yes,1.0,0.836,1.0,PARTIAL - Name & Phone match (Address different)
Atlas Gentle Effective Chiropractic LLC,+1 732-462-6686,"124 W Main St, Freehold, USA",Atlas Gentle Effective Chiropractic LLC,(732) 462-6686,"124 W Main St, Freehold, NJ 07728, USA",Yes,Yes,Yes,1.0,0.852,1.0,SUCCESS - All NAP data matches
SAMS MAHAL,nan,"Redhills - Thiruvallur High Road, Chennai, USA",SAMS MAHAL,,"Redhills - Thiruvallur High Rd, Red Hills, Chennai, Attanthangal, Tamil Nadu 600052, India",Yes,No,No,1.0,0.667,0.0,PARTIAL - Only Name matches
TRUE CHIROPRACTIC,+1 732-280-1800,"913 NJ-23 Suite 101, Pompton Plains, USA",TRUE CHIROPRACTIC,(973) 835-9322,"913 NJ-23 Suite 101, Pompton Plains, NJ 07444, USA",Yes,Yes,No,1.0,0.894,0.0,SUCCESS - Name & Address match (Phone missing/different)
Home Care Chiropractic,+1 732-583-0600,"Main St, Bridgewater, USA",Home Care Chiropractic,,"Main St, Bridgewater, NJ 08807, USA",Yes,Yes,No,1.0,0.836,0.0,SUCCESS - Name & Address match (Phone missing/different)
Core Wellness,+1 908-967-4676,"150-07 Bayside Ave #1FL, Flushing, USA",Core Wellness,(929) 200-8882,"150-07 Bayside Ave #1FL, Flushing, NY 11354, USA",Yes,Yes,No,1.0,0.886,0.0,SUCCESS - Name & Address match (Phone missing/different)
alpha test,nan,USA,UES,(972) 620-8911,"2209 Wisconsin St, Dallas, TX 75229, USA",No,Yes,No,0.308,1.0,0.0,FAIL - Significant NAP inconsistencies
TRUE testPRACTIC,+1 732-280-1800,USA,TrueTest Labs,(847) 258-3966,"2256 Landmeier Rd # A, Elk Grove Village, IL 60007, USA",No,Yes,No,0.621,1.0,0.0,FAIL - Significant NAP inconsistencies
First Care testpractic - Perth Amboy,+1 908-754-6888,USA,First Care Chiropractic - Perth Amboy,(848) 203-3280,"511 New Brunswick Ave, Perth Amboy, NJ 08861, USA",Yes,Yes,No,0.87,1.0,0.0,SUCCESS - Name & Address match (Phone missing/different)
Bongiovi testpractic Center,+1 732-574-2225,USA,,,,No,No,No,0.0,0.0,0.0,FAIL - No results found
K-Joy,+1 306-869-5678,"768 Saskatoon, Saskatoon, USA",,,,No,No,No,0.0,0.0,0.0,FAIL - No results found
Ben's Stupid Store For Stupid Stuff,306 855 7874,"3310 8th St E, Saskatoon, USA",,,,No,No,No,0.0,0.0,0.0,FAIL - No results found
Weblee (PLEASE DONT DELETE THIS ),+91 99999 99999,"This is the new address, Weblee, USA",Weblee Technologies,098830 34134,"DB-37 Shastri Bagan Deshbandhu Nagar Baguiati Kolkata 700059,, Sastribagan, Desh Bandhu Nagar, Baguiati, Kolkata, West Bengal 700059, India",No,No,No,0.49,0.205,0.0,FAIL - Significant NAP inconsistencies
Don't delete without contacting dallas,+1 306-242-5411,"119 33rd Street West, Saskatoon, USA",,,,No,No,No,0.0,0.0,0.0,FAIL - No results found
Shillong Bike Rental,+91 87299 28509,"Nongrim Hills, Shillong, USA",Shillong Bike Rental,,"Nongrim Hills, Shillong, Meghalaya 793003, India",Yes,Yes,No,1.0,0.75,0.0,SUCCESS - Name & Address match (Phone missing/different)
TITANIC Museum Attraction,+1 417-334-9500,"2134 Parkway, Pigeon Forge, USA",Titanic Museum Attraction,(417) 334-9500,"2134 Parkway, Pigeon Forge, TN 37863, USA",Yes,Yes,Yes,1.0,1.0,1.0,SUCCESS - All NAP data matches
Tiruchirappalli International Airport,+91 431 234 0554,"New Terminal Building, Tiruchirappalli, USA",Tiruchirappalli International Airport (TRZ) Terminal Building,,"QP57+GFV, Thirunagar, Tiruchirappalli, Tamil Nadu 620007, India",Yes,No,No,0.771,0.5,0.0,PARTIAL - Only Name matches
John D Wood & Co. Estate Agents Fulham Broadway,+44 20 3151 4134,"506 Fulham Road, London, USA",John D Wood & Co. Estate Agents Fulham Broadway,020 3151 4134,"506 Fulham Rd., London SW6 5NJ, UK",Yes,No,Yes,1.0,0.772,1.0,PARTIAL - Name & Phone match (Address different)
Books Are Magic,+1 718-246-2665,"225 Smith Street, Brooklyn, USA",Books Are Magic,(718) 246-2665,"225 Smith St, Brooklyn, NY 11231, USA",Yes,Yes,Yes,1.0,0.8,1.0,SUCCESS - All NAP data matches
KFC Yum! Center,+1 502-690-9000,"1 Arena Plaza, Louisville, USA",KFC Yum! Center,(502) 690-9000,"1 Arena Plaza, Louisville, KY 40202, USA",Yes,Yes,Yes,1.0,0.862,1.0,SUCCESS - All NAP data matches
"ZUDIO - Guduvanchery, Chennai",+91 88380 55120,"V326+4QW, 7, Grand Southern Trunk Rd, Guduvancheri, Chennai, USA","ZUDIO - Guduvanchery, Chennai",088380 55120,"V326+4QW, 7, Grand Southern Trunk Rd, Nandivaram, Guduvancheri, Chennai, Tamil Nadu 603202, India",Yes,Yes,Yes,1.0,0.779,1.0,SUCCESS - All NAP data matches
Assam Roofing Private Limited,7002279661,"Birkuchi, Guwahati, USA",Assam Roofing Private Limited,070022 79661,"Birkuchi, Narengi Tinali, Guwahati, Assam 781026, India",Yes,No,Yes,1.0,0.667,1.0,PARTIAL - Name & Phone match (Address different)
ash test,nan,USA,,,,No,No,No,0.0,0.0,0.0,FAIL - No results found
Engineered Air LLC,8668839073,"2520 N Andrews Avenue Ext, Pompano Beach, USA","Engineered Air, LLC",(866) 883-9073,"2520 N Andrews Ave Ext, Pompano Beach, FL 33064, USA",Yes,Yes,Yes,1.0,0.87,1.0,SUCCESS - All NAP data matches
"Del- Air Heating, Air Conditioning & Refrigeration, LLC",8888312665,"1000 Business Center Dr, Lake Mary, USA","Del-Air Heating, Air Conditioning, Plumbing and Electrical",(407) 995-6786,"1000 Business Center Dr, Lake Mary, FL 32746, USA",No,Yes,No,0.717,0.892,0.0,FAIL - Significant NAP inconsistencies
Flourishing Family testpractic,+1 732-583-0600,USA,,,,No,No,No,0.0,0.0,0.0,FAIL - No results found
Limitless Spine and Joint Care (Formerly Sadon testpractic & Rehabilitation Center),+1 732-574-2228,USA,Limitless Spine and Joint Care (Formerly Sadon Chiropractic & Rehabilitation Center),(732) 972-6010,"186 County Rte 520 #1, Morganville, NJ 07751, USA",Yes,Yes,No,0.943,1.0,0.0,SUCCESS - Name & Address match (Phone missing/different)
New York testpractic Life Center,+1 732-462-0049,USA,Life Center Church NYC / JHOP NYC,,"75 Maiden Ln, New York, NY 10038, USA",No,Yes,No,0.349,1.0,0.0,FAIL - Significant NAP inconsistencies
testpractic Wellness & Rehab Clinic,+1 732-583-0600,USA,American Wellness & Rehab Clinic,(801) 327-8700,"677 W 5300 S, Murray, UT 84123, USA",Yes,Yes,No,0.825,1.0,0.0,SUCCESS - Name & Address match (Phone missing/different)
testpractic Orthopedic Associates,+1 732-462-6687,USA,Orthopaedic Associates USA,(954) 476-8800,"350 N Pine Island Rd # 200, Plantation, FL 33324, USA",No,Yes,No,0.712,1.0,0.0,FAIL - Significant NAP inconsistencies
"ACTL Group, LLC",7862291297,"2123 W 76th St, Hialeah, USA",ACTL GROUP AIR CONDITIONING,(786) 229-1297,"2123 W 76th St, Hialeah, FL 33016, USA",No,Yes,Yes,0.585,0.852,1.0,PARTIAL - Address & Phone match (Name different)
Murray testpractic,+1 732-574-2229,USA,,,,No,No,No,0.0,0.0,0.0,FAIL - No results found
Village Family test LLC: Fedich James R DC,+1 732-462-6688,USA,Village Family Chiro LLC: Fedich James R DC,(908) 813-8200,"1500 County Rd 517 Suite 105, Allamuchy Township, NJ 07820, USA",Yes,Yes,No,0.892,1.0,0.0,SUCCESS - Name & Address match (Phone missing/different)
Natural Health test Center,+1 732-634-5155,USA,Ethnic Health Care Siddha Natural Fertility & General Clinic Chennai,044 2433 5222,"#28A/19A/2 Mylai Ranganathan Street, Thanikachalam Rd, near Nadesan Park, T. Nagar, Chennai, Tamil Nadu 600017, India",No,No,No,0.239,0.036,0.0,FAIL - Significant NAP inconsistencies
Solutions testpractic,+1 609-083-5376,USA,,,,No,No,No,0.0,0.0,0.0,FAIL - No results found
K-Restaurant,3062215792,"1301 Dredge Place, Wasilla, USA",The K Food,(907) 222-2563,"343 W Benson Blvd #3, Anchorage, AK 99503, USA",No,No,No,0.182,0.366,0.0,FAIL - Significant NAP inconsistencies
The Bardstown Bourbon Company,nan,USA,Bardstown Bourbon Company,(502) 233-4769,"1500 Parkway Dr, Bardstown, KY 40004, USA",Yes,Yes,No,0.926,1.0,0.0,SUCCESS - Name & Address match (Phone missing/different)
Unnameable Books,+1 718-789-1534,"615 Vanderbilt Avenue, USA",Unnameable Books,(718) 789-1534,"615 Vanderbilt Ave, Brooklyn, NY 11238, USA",Yes,Yes,Yes,1.0,0.75,1.0,SUCCESS - All NAP data matches
Dawn Esthetics,+1 719-600-8466,"4711 Opus Drive 200, Colorado Springs, USA",Dawn Esthetics,(719) 600-8466,"4711 Opus Dr #200, Colorado Springs, CO 80906, USA",Yes,Yes,Yes,1.0,0.86,1.0,SUCCESS - All NAP data matches
John D Wood & Co. Estate Agents Parsons Green,+44 20 3151 9498,"287 New Kings Road, London, USA",John D Wood & Co. Estate Agents Parsons Green,020 3151 9498,"287 New Kings Rd, London SW6 4RE, UK",Yes,No,Yes,1.0,0.794,1.0,PARTIAL - Name & Phone match (Address different)
Snapshots Lounge,+1 740-321-1391,"1320 Weaver Drive, Granville, USA",Snapshots Lounge,(740) 321-1391,"1320 Weaver Dr, Granville, OH 43023, USA",Yes,Yes,Yes,1.0,0.824,1.0,SUCCESS - All NAP data matches
Saskatoon Comets & District Female Hockey,+1 306-291-1686,"816 1st Avenue North, Saskatoon, USA",Saskatoon Comets & District Female Hockey,,"816 1st Ave N, Saskatoon, SK S7K 1Y3, Canada",Yes,No,No,1.0,0.693,0.0,PARTIAL - Only Name matches
Potato Chip Rock,+1 858-668-4772,"Ramona, Ramona, USA",Potato Chip Rock,(858) 668-4772,"Ramona, CA 92065, USA",Yes,Yes,Yes,1.0,1.0,1.0,SUCCESS - All NAP data matches
Baobab Fare,+1 313-265-3093,"6568 Woodward Ave Suite 100, Detroit, USA",Baobab Fare,(313) 265-3093,"6568 Woodward Ave Suite 100, Detroit, MI 48202, USA",Yes,Yes,Yes,1.0,1.0,1.0,SUCCESS - All NAP data matches
ash test,nan,USA,,,,No,No,No,0.0,0.0,0.0,FAIL - No results found
Nucor Steel Gallatin,+1 859-567-3100,"4831 U.S. 42, Ghent, USA",Nucor Steel Gallatin,(859) 567-3100,"4831 US-42, Ghent, KY 41045, USA",Yes,No,Yes,1.0,0.8,1.0,PARTIAL - Name & Phone match (Address different)
SeekersParadox,+234 802 845 7789,"723 Guess Street, Abuja, USA",Result Seekers LTD,0802 533 4020,"10, Area 11, Off Onitsha Cres, Gimbiya St, Garki, Abuja 900103, Federal Capital Territory, Nigeria",No,No,No,0.5,0.239,0.0,FAIL - Significant NAP inconsistencies
Core Spine & Wellness - Dr. Frank Spano  DC,+1 732-574-2227,"180 Tices Ln Ste 105, East Brunswick, USA","Core Spine & Wellness - Dr. Frank Spano, DC",(732) 253-5450,"180 Tices Ln Ste 105, East Brunswick, NJ 08816, USA",Yes,Yes,No,1.0,0.897,0.0,SUCCESS - Name & Address match (Phone missing/different)
NJBack Chiropractic Center,+1 908-272-4009,"47 Hamburg Turnpike, Riverdale, USA",NJBack Chiropractic Center,(973) 874-9777,"47 Hamburg Turnpike, Riverdale, NJ 07457, USA",Yes,Yes,No,1.0,0.88,0.0,SUCCESS - Name & Address match (Phone missing/different)
Dr Daniel M Newcomer - Parlin Spine & Disc LLC,+1 732-534-3866,"3010 Bordentown Ave, Parlin, USA",Dr Daniel M Newcomer - Parlin Spine & Disc LLC,(732) 721-0044,"3010 Bordentown Ave, Parlin, NJ 08859, USA",Yes,Yes,No,1.0,1.0,0.0,SUCCESS - Name & Address match (Phone missing/different)
The Chiropractic Source,+1 732-545-5999,"388 Pompton Ave, Cedar Grove, USA",The Chiropractic Source,(973) 228-0500,"388 Pompton Ave, Cedar Grove, NJ 07009, USA",Yes,Yes,No,1.0,1.0,0.0,SUCCESS - Name & Address match (Phone missing/different)
Northwood West Norwood,+44 20 8299 9999,"493 Norwood Road, London, USA",Northwood West Norwood,020 8299 9999,"493 Norwood Rd, Norwood, London SE27 9DJ, UK",Yes,No,Yes,1.0,0.706,1.0,PARTIAL - Name & Phone match (Address different)
Bongiovi Chiropractic Center,+1 732-574-2225,"764 Jefferson Ave, Rahway, USA",Bongiovi Chiropractic Center,(732) 574-2225,"764 Jefferson Ave, Rahway, NJ 07065, USA",Yes,Yes,Yes,1.0,1.0,1.0,SUCCESS - All NAP data matches
Dreicer testpractic and Wellness Center,+1 732-574-2226,USA,Docere Center for Natural Medicine,(206) 706-0306,"#200, 6800 East Green Lake Way N #250, Seattle, WA 98115, USA",No,Yes,No,0.329,1.0,0.0,FAIL - Significant NAP inconsistencies
testpractic Wellness Center of Baltimore,+1 732-704-3459,USA,Strength and Vitality Wellness Center,(410) 296-4028,"106 Old Court Rd #200, Pikesville, MD 21208, USA",No,Yes,No,0.571,1.0,0.0,FAIL - Significant NAP inconsistencies
Affordable testpractic,+1 908-754-6888,USA,,,,No,No,No,0.0,0.0,0.0,FAIL - No results found
King George testpractic,+1 732-389-8000,USA,,,,No,No,No,0.0,0.0,0.0,FAIL - No results found
Unna testpractic Care,+1 732-534-3866,USA,,,,No,No,No,0.0,0.0,0.0,FAIL - No results found
"Nucor Steel, Crawfordsville",+1 765-364-1323,"4537 Nucor Rd, Crawfordsville, USA",Nucor Steel Crawfordsville,(765) 364-1323,"4537 Nucor Rd, Crawfordsville, IN 47933, USA",Yes,Yes,Yes,1.0,0.877,1.0,SUCCESS - All NAP data matches
Short Lived Stories,+44 7911 123456,"Manchester Square, London, USA",,,,No,No,No,0.0,0.0,0.0,FAIL - No results found
KFC,+91 76050 28557,"Laitumkhrah Main Road Post Office, Shillong, USA",KFC,076050 28557,"Anderson Plaza, Post Office, Laitumkhrah Main Rd, opposite Laitumkhrah, Nongkynrih, Laitumkhrah, Shillong, Meghalaya 793003, India",Yes,Yes,Yes,1.0,0.714,1.0,SUCCESS - All NAP data matches
John D Wood & Co. Estate Agents Notting Hill,+44 20 7100 9142,"129-131 Notting Hill Gate, London, USA",John D Wood & Co. Estate Agents Notting Hill,020 7100 9142,"129-131 Notting Hill Gate, London W11 3LB, UK",Yes,Yes,Yes,1.0,0.861,1.0,SUCCESS - All NAP data matches
John D Wood & Co. Estate Agents Chiswick,+44 20 3151 4309,"45 Turnham Green Terrace, London, USA",John D Wood & Co. Estate Agents Chiswick,020 3151 4309,"45 Turnham Green Terrace, Chiswick, London W4 1RG, UK",Yes,No,Yes,1.0,0.776,1.0,PARTIAL - Name & Phone match (Address different)
John D Wood & Co. Estate Agents Chelsea Green,+44 20 3369 1343,"9-11 Cale Street, London, USA",John D Wood & Co. Estate Agents Chelsea Green,020 3369 1343,"9, 11 Cale St, London SW3 3QS, UK",Yes,No,Yes,1.0,0.737,1.0,PARTIAL - Name & Phone match (Address different)
John D Wood & Co. Estate Agents Clapham,+44 20 3151 5733,"53 Abbeville Road, London, USA",John D Wood & Co. Estate Agents Clapham,020 3151 5733,"53 Abbeville Rd, London SW4 9JX, UK",Yes,No,Yes,1.0,0.787,1.0,PARTIAL - Name & Phone match (Address different)
John D Wood & Co. Estate Agents Cadogan Street,+44 20 3151 4149,"59 Cadogan Street, London, USA",John D Wood & Co. Estate Agents Cadogan Street,020 3151 4149,"59 Cadogan St, London SW3 2QJ, UK",Yes,No,Yes,1.0,0.746,1.0,PARTIAL - Name & Phone match (Address different)
Sandbox Mutual Insurance,+1 306-653-4232,"250 Willis Crescent, Saskatoon, USA",Sandbox Mutual Insurance,(306) 653-4232,"250 Willis Cres, Saskatoon, SK S7T 0V2, Canada",Yes,No,Yes,1.0,0.737,1.0,PARTIAL - Name & Phone match (Address different)
The Keg Steakhouse + Bar - Saskatoon Brighton,+1 306-244-0024,"143 Gibson Bnd, Saskatoon, USA",The Keg Steakhouse + Bar - Saskatoon Brighton,(306) 244-0024,"143 Gibson Bnd, Saskatoon, SK S7V 0V2, Canada",Yes,Yes,Yes,1.0,0.8,1.0,SUCCESS - All NAP data matches
vimal1 test,nan,USA,,,,No,No,No,0.0,0.0,0.0,FAIL - No results found
McDonald's,3069558665,"1803 Idylwyld Dr N, Saskatoon, USA",McDonald's,(306) 955-8665,"1803 Idylwyld Dr N, Saskatoon, SK S7L 1B6, Canada",Yes,No,Yes,1.0,0.795,1.0,PARTIAL - Name & Phone match (Address different)
testpractic Associates LLC,+1 609-448-6744,USA,Test Technology Associates,(214) 483-3707,"3033 Kellway Dr Suite 117, Carrollton, TX 75006, USA",No,Yes,No,0.615,1.0,0.0,FAIL - Significant NAP inconsistencies
The testpractic Source,+1 732-545-5999,USA,,,,No,No,No,0.0,0.0,0.0,FAIL - No results found
Ben's Great Testing Stuff Machine Store,+1 306-955-1111,"410 222 St E STE 119, Saskatoon, USA",,,,No,No,No,0.0,0.0,0.0,FAIL - No results found
Clint's Wonder Emporium,+1 306-717-4567,"2413 First World Ave, Saskatoon, USA",Nutrien Wonderhub,(306) 249-3574,"950 Spadina Crescent E, Saskatoon, SK S7K 3H6, Canada",No,No,No,0.5,0.476,0.0,FAIL - Significant NAP inconsistencies
testpractic & Therapy Center,+1 732-545-5999,USA,Practice of the Practice,(231) 714-0282,"125 S. Park St., Suite 400, Traverse City, MI 49684, USA",No,Yes,No,0.6,1.0,0.0,FAIL - Significant NAP inconsistencies
A & W Chiropractic Center,+1 908-272-4007,"190 N Ave E, Cranford, USA",A & W Chiropractic Center,(908) 272-4007,"190 N Ave E, Cranford, NJ 07016, USA",Yes,No,Yes,1.0,0.842,1.0,PARTIAL - Name & Phone match (Address different)
Tea Boy,+91 63835 90443,"139a Geetha Rajaji Road House No 2, Coimbatore, USA",TEA BOY,099447 53980,"Railway Station, 274, opposite Podanur, Amman Nagar, Podanur, Coimbatore, Tamil Nadu 641024, India",Yes,No,No,1.0,0.371,0.0,PARTIAL - Only Name matches
Louro testpractic Center,+1 732-545-5999,USA,,,,No,No,No,0.0,0.0,0.0,FAIL - No results found
Salutogenesis testpractic,+1 732-462-6690,USA,,,,No,No,No,0.0,0.0,0.0,FAIL - No results found
NY Disc testpractic (노던 카이로 통증병원),+1 732-462-0049,USA,NY Disc Chiropractic (노던 카이로 통증병원),(718) 746-4919,"154-19 Northern Blvd #2F-5, Flushing, NY 11354, USA",Yes,Yes,No,0.857,1.0,0.0,SUCCESS - Name & Address match (Phone missing/different)
LightSource testpractic,+1 201-250-6123,USA,Light Source USA Inc.,(704) 504-8399,"3935 Westinghouse Blvd, Charlotte, NC 28273, USA",No,Yes,No,0.698,1.0,0.0,FAIL - Significant NAP inconsistencies
SRM Sweets & Cakes - Palayapalayam,+91 95241 14433,"146 Perundurai Road, Erode, USA",SRM Sweets & Cakes - Perundurai,,"7HFM+XJR, Old Bus Stand Road, opp. to Ponnusamy Military Kitchen, Perundurai, Tamil Nadu 638052, India",No,No,No,0.667,0.6,0.0,FAIL - Significant NAP inconsistencies
Hershey Family Chiropractic,+1 732-634-5155,"24 Northeast Dr Suite A, Hershey, USA",Hershey Family Chiropractic,(717) 531-3411,"24 Northeast Dr Suite A, Hershey, PA 17033, USA",Yes,Yes,No,1.0,0.886,0.0,SUCCESS - Name & Address match (Phone missing/different)
Hands On Health Chiropractic  LLC,+1 732-389-8000,"321 Mantoloking Rd, Brick Township, USA","Hands On Health Chiropractic, LLC",(732) 710-7403,"321 Mantoloking Rd, Brick Township, NJ 08723, USA",Yes,Yes,No,1.0,0.892,0.0,SUCCESS - Name & Address match (Phone missing/different)
Smith Chiropractic Family Care & Sports Injury Center,+1 609-448-6743,"261 Springfield Ave Suite 202, Berkeley Heights, USA",Smith Chiropractic Family Care & Sports Injury Center,(908) 464-8899,"261 Springfield Ave Suite 202, Berkeley Heights, NJ 07922, USA",Yes,Yes,No,1.0,1.0,0.0,SUCCESS - Name & Address match (Phone missing/different)
A & W Chiropractic Center,+1 908-272-4007,"190 N Ave E, Cranford, USA",A & W Chiropractic Center,(908) 272-4007,"190 N Ave E, Cranford, NJ 07016, USA",Yes,No,Yes,1.0,0.842,1.0,PARTIAL - Name & Phone match (Address different)
Chiropractic Wellness & Rehab Clinic,+1 732-583-0600,"100 E Chester Pike, Ridley Park, USA",Chiropractic Wellness & Rehab Clinic,(610) 532-3401,"100 E Chester Pike, Ridley Park, PA 19078, USA",Yes,Yes,No,1.0,0.883,0.0,SUCCESS - Name & Address match (Phone missing/different)
Rock Bottom Restaurant & Brewery,+1 331-888-9199,"28256 Diehl Road, Warrenville, USA",Rock Bottom Restaurant & Brewery,(331) 888-9199,"28256 Diehl Rd, Warrenville, IL 60555, USA",Yes,Yes,Yes,1.0,0.845,1.0,SUCCESS - All NAP data matches
Core Chiropractic,+1 718-275-1317,"4730 Centennial Blvd Ste102, Colorado Springs, USA",Core Chiropractic,(719) 599-8682,"4730 Centennial Blvd Ste102, Colorado Springs, CO 80919, USA",Yes,Yes,No,1.0,1.0,0.0,SUCCESS - Name & Address match (Phone missing/different)
Peak Chiropractic Neurology,+1 908-547-0729,"601 Ewing St, Princeton, USA",Peak Chiropractic Neurology,(609) 683-0580,"601 Ewing St, Princeton, NJ 08540, USA",Yes,Yes,No,1.0,0.852,0.0,SUCCESS - Name & Address match (Phone missing/different)
First Care Chiropractic - Perth Amboy,+1 908-754-6888,"511 New Brunswick Ave, Perth Amboy, USA",First Care Chiropractic - Perth Amboy,(848) 203-3280,"511 New Brunswick Ave, Perth Amboy, NJ 08861, USA",Yes,Yes,No,1.0,1.0,0.0,SUCCESS - Name & Address match (Phone missing/different)
New Bangalore Iyengar Bakery,+91 97301 86103,"Talegaon Dabhade Road, Talegaon Dabhade, USA",New Bangalore Iyengar Bakery,097301 86103,"Shop No.1, Vishal Sagar Complex, Rao Colony, Talegaon Dabhade Rd, Rao Colony, Tukaram Nagar, Talegaon Dabhade, Maharashtra 410506, India",Yes,No,Yes,1.0,0.667,1.0,PARTIAL - Name & Phone match (Address different)
Hanson of Sonoma Distillery,+1 707-343-1805,"Burndale Rd, Sonoma, USA",Hanson of Sonoma Distillery,(707) 343-1805,"22985 Burndale Rd Building C, Sonoma, CA 95476, USA",Yes,Yes,Yes,1.0,0.75,1.0,SUCCESS - All NAP data matches
Garden State Spinal Care,+1 732-545-5999,"8 Hillside Ave #103, Montclair, USA",Garden State Spinal Care,(973) 705-7010,"8 Hillside Ave #103, Montclair, NJ 07042, USA",Yes,Yes,No,1.0,0.877,0.0,SUCCESS - Name & Address match (Phone missing/different)
Monroe Wellness Center,+1 609-317-2004,"7 Centre Dr #10, Monroe Township, USA",Monroe Wellness Center,(609) 662-4714,"7 Centre Dr #10, Monroe Township, NJ 08831, USA",Yes,Yes,No,1.0,0.883,0.0,SUCCESS - Name & Address match (Phone missing/different)
Strive2Move Chiropractor,+1 908-547-0729,"1910 Washington Valley Rd STE 4, Martinsville, USA",Strive2Move Chiropractor,(908) 547-0729,"1910 Washington Valley Rd STE 4, Martinsville, NJ 08836, USA",Yes,Yes,Yes,1.0,0.914,1.0,SUCCESS - All NAP data matches
ABC PRIVATE LIMITED,+91 1234 567 890,"Rathinam Street, Chennai, USA",ABC Techno Labs India Private Limited,094442 60000,"#400, 13th Street, Godrej Rd, North Phase, Sidco Industrial Estate, Ambattur, Chennai, Tamil Nadu 600098, India",No,No,No,0.679,0.5,0.0,FAIL - Significant NAP inconsistencies
Support Saskatoon Libraries,+1 306-975-3202,"222 3rd Ave N, Saskatoon, USA",Support Saskatoon Libraries,(306) 975-3202,"222 3rd Ave N, Saskatoon, SK S7K 0J5, Canada",Yes,No,Yes,1.0,0.765,1.0,PARTIAL - Name & Phone match (Address different)
NY Chiropractic & Physical Therapy,+1 908-967-4676,"1163 Forest Ave, Staten Island, USA",NY Chiropractic & Physical Therapy,(718) 727-0055,"1163 Forest Ave, Staten Island, NY 10310, USA",Yes,Yes,No,1.0,1.0,0.0,SUCCESS - Name & Address match (Phone missing/different)
The Chiro Studio,+1 732-634-5155,"2807 Brunswick Pike Suite 2, Lawrence Township, USA",The Chiro Studio,(609) 557-7838,"2807 Brunswick Pike Suite 2, Lawrence Township, NJ 08648, USA",Yes,Yes,No,1.0,0.916,0.0,SUCCESS - Name & Address match (Phone missing/different)
Natural Health Chiropractic,+1 732-583-0600,"495 Union Ave #1b, Middlesex, USA",Natural Health Chiropractic,(732) 271-0400,"495 Union Ave #1b, Middlesex, NJ 08846, USA",Yes,Yes,No,1.0,0.87,0.0,SUCCESS - Name & Address match (Phone missing/different)
Starbucks Reserve Roastery,(206) 624-0173,"1124 Pike St, Seattle, USA",Starbucks Reserve Roastery,(206) 624-0173,"1124 Pike St, Seattle, WA 98101, USA",Yes,Yes,Yes,1.0,0.842,1.0,SUCCESS - All NAP data matches
Active Release and testpractic Center: Dr. Anthony Criscuolo  DC,+1 732-280-1800,USA,"Active Release and Chiropractic Center: Dr. Anthony Criscuolo, DC",(732) 280-1800,"3350 NJ-138 Building 2 Suite 227, Wall Township, NJ 07719, USA",Yes,Yes,Yes,0.927,1.0,1.0,SUCCESS - All NAP data matches
Park testpractic & Posture,+1 732-389-8000,USA,Park Chiropractic & Posture,(732) 342-7575,"85 Raritan Ave Suite 430, Highland Park, NJ 08904, USA",Yes,Yes,No,0.816,1.0,0.0,SUCCESS - Name & Address match (Phone missing/different)
Icy cakes by IP,9876543210,"14 B & 15A - Zone 1C , Uptown, Kathipara Urban Square Kathipara Junction, Guindy, near Pizza Hut, Viralur, Chakrapani Colony,, Chennai, USA","UPTOWN | 24/7 entertainment centre, Kathipara Urban Square",1800 4253 1111,"Kathipara Bridge, Under, Metro Station Guindy, Kathipara Junction, near Alandur, Ramapuram, Chakrapani Colony, St.Thomas Mount, Tamil Nadu 600016, India",No,No,No,0.171,0.537,0.0,FAIL - Significant NAP inconsistencies
Accoland,+91 99541 71224,"Guwahati-Accoland-Rani Road, Pat Gaon, USA",Accoland,099541 71224,"Guwahati-Accoland-Rani Rd, near BSF Headquarters, Pat Gaon, Garbhanga F.V., Assam 781015, India",Yes,Yes,Yes,1.0,0.714,1.0,SUCCESS - All NAP data matches
John D Wood & Co. Estate Agents Lymington,+44 1590 540089,"53 High Street, Lymington, USA",John D Wood & Co. Estate Agents Lymington,01590 540089,"53 High St, Lymington SO41 9ZB, UK",Yes,No,Yes,1.0,0.733,1.0,PARTIAL - Name & Phone match (Address different)
Testing automation,1234567890,"chennai, chennai, USA",Automated Test System Tech,044 4214 4180,"L 49, Northern Ave Rd, Ambattur Industrial Estate, Chennai, Tamil Nadu 600058, India",No,No,No,0.318,0.667,0.0,FAIL - Significant NAP inconsistencies
John D Wood & Co. Estate Agents Winchester,1962920473,"82 High Street, Winchester, USA",John D Wood & Co. Estate Agents Winchester,01962 920473,"82 High St, Winchester SO23 9AP, UK",Yes,No,Yes,1.0,0.742,1.0,PARTIAL - Name & Phone match (Address different)
The Brew Room,+91 97109 47380,"146, Dr Radha Krishnan Salai, Chennai, USA",The Brew Room,097109 47380,"146, Dr Radha Krishnan Salai, Mylapore, Chennai, Tamil Nadu 600004, India",Yes,Yes,Yes,1.0,0.714,1.0,SUCCESS - All NAP data matches
testpractic Center at Styertowne,+1 609-239-3128,USA,Chiropractic Center at Styertowne,(973) 777-6995,"501 Allwood Rd, Clifton, NJ 07012, USA",Yes,Yes,No,0.862,1.0,0.0,SUCCESS - Name & Address match (Phone missing/different)
Pico Family testpractic Center,+1 609-356-1442,USA,,,,No,No,No,0.0,0.0,0.0,FAIL - No results found
Upper Cervical testpractic New Jersey,+1 732-280-1800,USA,Montclair Upper Cervical Chiropractic,(973) 744-3456,"155 Prospect Ave Suite 202, West Orange, NJ 07052, USA",No,Yes,No,0.595,1.0,0.0,FAIL - Significant NAP inconsistencies
Patriot testpractic Center,+1 732-661-0330,USA,The Patriot Center,(757) 727-1079,"1589 Wingfield Dr, Hampton, VA 23666, USA",No,Yes,No,0.636,1.0,0.0,FAIL - Significant NAP inconsistencies
Back to Health testpractic & Wellness Center,+1 609-278-2566,USA,Back To Health Chiropractic and Wellness Center,(972) 539-6564,"1900 Long Prairie Rd Suite 130, Flower Mound, TX 75022, USA",Yes,Yes,No,0.854,1.0,0.0,SUCCESS - Name & Address match (Phone missing/different)
Natural Health testpractic,+1 732-583-0600,USA,Natural Health Strategies,(714) 257-5463,"5100 E La Palma Ave Ste 208, Anaheim, CA 92807, USA",No,Yes,No,0.706,1.0,0.0,FAIL - Significant NAP inconsistencies
I Know My test  testpractic Wellness,+1 609-448-6742,USA,,,,No,No,No,0.0,0.0,0.0,FAIL - No results found
ProActive testpractic Center,+1 908-967-4676,USA,Proactive Sports Performance,(818) 597-6201,"31425 Agoura Rd, Westlake Village, CA 91361, USA",No,Yes,No,0.571,1.0,0.0,FAIL - Significant NAP inconsistencies
Atlas testpractic Wellness Center,+1 201-250-6122,USA,Atlas Chiropractic and Wellness Center,(714) 540-6792,"2900 Bristol St Ste A201, Costa Mesa, CA 92626, USA",Yes,Yes,No,0.817,1.0,0.0,SUCCESS - Name & Address match (Phone missing/different)
A & W testpractic Center,+1 908-272-4007,USA,AW Driving School & Testing Center,(610) 508-3011,"555 Union Blvd, Allentown, PA 18109, USA",No,Yes,No,0.556,1.0,0.0,FAIL - Significant NAP inconsistencies
Blitz testpractic Center,+1 609-395-0880,USA,,,,No,No,No,0.0,0.0,0.0,FAIL - No results found
Chiropractic Center at Styertowne,+1 609-239-3128,"501 Allwood Rd, Clifton, USA",Chiropractic Center at Styertowne,(973) 777-6995,"501 Allwood Rd, Clifton, NJ 07012, USA",Yes,Yes,No,1.0,0.852,0.0,SUCCESS - Name & Address match (Phone missing/different)
Horowitz Jay S DC,+1 718-275-1315,"415 Wall St, Princeton, USA",Horowitz Jay S DC,(609) 683-1700,"415 Wall St, Princeton, NJ 08540, USA",Yes,Yes,No,1.0,0.847,0.0,SUCCESS - Name & Address match (Phone missing/different)
Hee N. Park  DC,+1 732-534-3866,"85 Raritan Ave Suite 430, Highland Park, USA","Hee N. Park, DC",(732) 342-7575,"85 Raritan Ave Suite 430, Highland Park, NJ 08904, USA",Yes,Yes,No,1.0,0.903,0.0,SUCCESS - Name & Address match (Phone missing/different)
Grunstein Family Chiropractic Center,+1 609-200-3690,"340 E Northfield Rd # 2E, Livingston, USA",Grunstein Family Chiropractic Center,(973) 640-0760,"340 E Northfield Rd # 2E, Livingston, NJ 07039, USA",Yes,Yes,No,1.0,0.892,0.0,SUCCESS - Name & Address match (Phone missing/different)
LightSource Chiropractic,+1 201-250-6123,"16 Leigh St, Clinton, USA",LightSource Chiropractic,(908) 238-1081,"16 Leigh St, Clinton, NJ 08809, USA",Yes,No,No,1.0,0.836,0.0,PARTIAL - Only Name matches
About You Chiropractic,+1 732-583-0600,"245 Main St Suite 2M, Matawan, USA",About You Chiropractic,(732) 583-0600,"245 Main St Suite 2M, Matawan, NJ 07747, USA",Yes,Yes,Yes,1.0,0.877,1.0,SUCCESS - All NAP data matches
Silverstein Family Chiropractic,+1 201-250-6125,"1709 Langhorne Newtown Rd #3, Langhorne, USA",Silverstein Family Chiropractic,(215) 860-0450,"1709 Langhorne Newtown Rd #3, Langhorne, PA 19047, USA",Yes,Yes,No,1.0,0.901,0.0,SUCCESS - Name & Address match (Phone missing/different)
Unna Chiropractic Care,+1 732-534-3866,"540 Bound Brook Rd Suite 2, Middlesex, USA",Unna Chiropractic Care,(732) 534-3866,"540 Bound Brook Rd Suite 2, Middlesex, NJ 08846, USA",Yes,Yes,Yes,1.0,0.899,1.0,SUCCESS - All NAP data matches
Shivahare Dhaba And Restaurant,+91 89896 84344,"Khajoori Sadak, Sehore, USA",Shivahare Dhaba And Restaurant,089896 84344,"Khajoori Sadak, Bhopal, NH-86, Bhopal Road, Sehore, Sehore, Bhopal, Madhya Pradesh 466651, India",Yes,Yes,Yes,1.0,0.75,1.0,SUCCESS - All NAP data matches
Brian K. Rebisz  DC,+1 732-280-1800,"8420 West Chester Pike, Upper Darby Township, USA","Brian K. Rebisz, DC",(610) 446-2828,"8420 West Chester Pike, Upper Darby Township, PA 19082, USA",Yes,Yes,No,1.0,1.0,0.0,SUCCESS - Name & Address match (Phone missing/different)
Back In Action testpractic,+1 609-434-0318,USA,Back in Action Sports Chiropractic,(818) 275-2410,"28348 Roadside Dr suite 203B, Agoura Hills, CA 91301, USA",Yes,Yes,No,0.8,1.0,0.0,SUCCESS - Name & Address match (Phone missing/different)
The Ocean Pearl Resort And Spa,+91 836 222 6600,"Hubli - Dharwad Road, Hubballi, USA",The Ocean Pearl Resort And Spa,0836 222 6600,"Hubli - Dharwad Rd, Rayapur, Dharwad, Karnataka 580009, India",Yes,No,Yes,1.0,0.488,1.0,PARTIAL - Name & Phone match (Address different)
The Monkey Puzzle Tree Ltd,+44 113 450 3639,"26 Roundhay Road, Leeds, USA",The Monkey Puzzle Tree Ltd,0113 450 3639,"26 Roundhay Rd, Leeds LS7 1AB, UK",Yes,No,Yes,1.0,0.772,1.0,PARTIAL - Name & Phone match (Address different)
John D Wood & Co. Estate Agents Earl's Court,+44 20 3151 4115,"239 Earls Court Road, London, USA",John D Wood & Co. Estate Agents Earl's Court,020 3151 4115,"239 Earls Ct Rd, London SW5 9AH, UK",Yes,No,Yes,1.0,0.75,1.0,PARTIAL - Name & Phone match (Address different)
John D Wood & Co. Estate Agents Wimbledon,+44 20 3151 4293,"5 Church Road, London, USA",John D Wood & Co. Estate Agents Wimbledon,020 3151 4293,"5 Church Rd, London SW19 5DW, UK",Yes,No,Yes,1.0,0.741,1.0,PARTIAL - Name & Phone match (Address different)
Arial Electric Ltd,+1 306-222-9025,"1904 Saskatchewan Ave, Saskatoon, USA",Arial Electric Ltd,(306) 222-9025,"1904 Saskatchewan Ave, Saskatoon, SK S7K 1R2, Canada",Yes,Yes,Yes,1.0,0.81,1.0,SUCCESS - All NAP data matches
In The Zone Cleaning Services,3064711623,"822 Ave O S, Saskatoon, USA",,,,No,No,No,0.0,0.0,0.0,FAIL - No results found
Badger's Test - DO NOT DELETE,3062279834,"1 Aspen St, Humboldt, USA",,,,No,No,No,0.0,0.0,0.0,FAIL - No results found
Bliss story,1234567890,"Chennai, chennai, USA",Secret Story Chennai,084280 75000,"23, 13, Khader Nawaz Khan Rd, Srirampuram, Thousand Lights West, Nungambakkam, Chennai, Poombukar Nagar, Tamil Nadu 600006, India",No,Yes,No,0.452,1.0,0.0,FAIL - Significant NAP inconsistencies
Empire Wine,nan,USA,Empire Wine & Liquor,(518) 694-8503,"1440 Central Ave, Albany, NY 12205, USA",Yes,Yes,No,0.759,1.0,0.0,SUCCESS - Name & Address match (Phone missing/different)
Monster Mini Golf Calgary,+1 587-354-0244,"2020 32 Avenue Northeast, Calgary, USA",Monster Mini Golf Calgary,(587) 354-0244,"2020 32 Ave NE, Calgary, AB T2E 6T4, Canada",Yes,No,Yes,1.0,0.632,1.0,PARTIAL - Name & Phone match (Address different)
TRIFECTA PLUMBING HEATING & AIR ltd,+1 604-969-4308,"780 Beatty Street, Vancouver, USA",TRIFECTA PLUMBING HEATING & AIR ltd,(604) 969-4308,"780 Beatty St, Vancouver, BC V6B 2M1, Canada",Yes,No,Yes,1.0,0.694,1.0,PARTIAL - Name & Phone match (Address different)
Bharath Mall,+91 824 427 9330,"Bejai Main Road, Mangaluru, USA",Bharath Mall,0824 427 9330,"Bejai Main Rd, opp. KSRTC Bustand, Lalbagh, Mangaluru, Karnataka 575003, India",Yes,No,Yes,1.0,0.6,1.0,PARTIAL - Name & Phone match (Address different)
Ben's Basic Business,3067130033,"351 Avondale Road, Saskatoon, USA",Benesh Bitz & Company,(306) 664-0033,"1630 Quebec Ave, Saskatoon, SK S7K 1V7, Canada",No,No,No,0.41,0.486,0.0,FAIL - Significant NAP inconsistencies
Sandbox Mutual Insurance,+1 306-653-4232,"250 Willis Crescent, Saskatoon, USA",Sandbox Mutual Insurance,(306) 653-4232,"250 Willis Cres, Saskatoon, SK S7T 0V2, Canada",Yes,No,Yes,1.0,0.737,1.0,PARTIAL - Name & Phone match (Address different)
Daijiworld Audio Visual Studio,7022183270,"Airport Road, Mangaluru, USA",Daijiworld Audio Visual Studio,,"Airport Rd, Bondel, Mangaluru, Karnataka 575008, India",Yes,No,No,1.0,0.605,0.0,PARTIAL - Only Name matches
John D Wood & Co. Estate Agents St Margaret's,+44 20 3369 4886,"127 Saint Margarets Road, Twickenham, USA",John D Wood & Co. Estate Agents St Margaret's,020 3369 4886,"127 St. Margarets Rd, St Margarets, Twickenham TW1 1RG, UK",Yes,No,Yes,1.0,0.688,1.0,PARTIAL - Name & Phone match (Address different)
John D Wood & Co. Estate Agents Esher and CHK Mountford Lettings,+44 1372 390049,"53 High Street, Esher, USA",John D Wood & Co. Estate Agents Esher and CHK Mountford Lettings,01372 390049,"53 High St, Esher KT10 9RQ, UK",Yes,No,Yes,1.0,0.692,1.0,PARTIAL - Name & Phone match (Address different)
Dharma Digital Marketing Agency,+1 305-613-2396,"3555 Northwest 83rd Avenue Suite 320, Doral, USA",Dharma Digital Marketing Agency,(305) 613-2396,"3555 NW 83rd Ave Suite 320, Doral, FL 33122, USA",Yes,Yes,Yes,1.0,0.791,1.0,SUCCESS - All NAP data matches
McDonald's,3069558677,"1706 Preston Ave N, Saskatoon, USA",McDonald's,(306) 955-8677,"1706 Preston Ave N, Saskatoon, SK S7N 4Y1, Canada",Yes,No,Yes,1.0,0.795,1.0,PARTIAL - Name & Phone match (Address different)
Forest Hills testpractic & Wellness,+1 732-389-8000,USA,Forest Hills Chiropractic & Wellness,(718) 268-4464,"71-36 110th St Ste Sp1, Queens, NY 11375, USA",Yes,Yes,No,0.866,1.0,0.0,SUCCESS - Name & Address match (Phone missing/different)
Active Release and Chiropractic Center: Dr. Anthony Criscuolo  DC,+1 732-280-1800,"3350 NJ-138 Building 2 Suite 227, Wall Township, USA","Active Release and Chiropractic Center: Dr. Anthony Criscuolo, DC",(732) 280-1800,"3350 NJ-138 Building 2 Suite 227, Wall Township, NJ 07719, USA",Yes,Yes,Yes,1.0,0.917,1.0,SUCCESS - All NAP data matches
M.O.Academy School,+91 76430 17936,"Old Purulia Road, Jamshedpur, USA",M.O.Academy School,076430 17936,"R6P3+662, Old Purulia Rd, Zakir Nagar, Mango, Jamshedpur, Jharkhand 832110, India",Yes,No,Yes,1.0,0.6,1.0,PARTIAL - Name & Phone match (Address different)
KFC Yum! Center,+1 502-690-9000,"1 Arena Plaza, Louisville, USA",KFC Yum! Center,(502) 690-9000,"1 Arena Plaza, Louisville, KY 40202, USA",Yes,Yes,Yes,1.0,0.862,1.0,SUCCESS - All NAP data matches
Test company 2,nan,USA,"AMMAGENOMICS LLP - Molecular, Clinical & Food Testing Laboratory",073053 16219,"1A, 87, Arcot Rd, next to Raymonds Showroom, near Avichi School, AVM Nagar, Saligramam, Chennai, Tamil Nadu 600093, India",No,No,No,0.219,0.035,0.0,FAIL - Significant NAP inconsistencies
Get Adjusted Chiropractic PC,+1 609-448-6741,"519 8th Ave #811, New York, USA",Get Adjusted Chiropractic PC,(845) 809-8300,"519 8th Ave #811, New York, NY 10018, USA",Yes,Yes,No,1.0,1.0,0.0,SUCCESS - Name & Address match (Phone missing/different)
Innate Living Center,+1 718-275-1314,"740 NJ-34, Matawan, USA",Innate Living Center,(732) 583-7799,"740 NJ-34, Matawan, NJ 07747, USA",Yes,No,No,1.0,0.824,0.0,PARTIAL - Only Name matches
Back to Health,+1 732-634-5155,"136 St Paul St, Westfield, USA",Back to Health,(908) 333-3988,"136 St Paul St, Westfield, NJ 07090, USA",Yes,Yes,No,1.0,0.862,0.0,SUCCESS - Name & Address match (Phone missing/different)
Edison Chiropractic,+1 732-661-0330,"776 Amboy Ave # 200, Edison, USA",Edison Chiropractic,(732) 661-0330,"776 Amboy Ave # 200, Edison, NJ 08837, USA",Yes,Yes,Yes,1.0,1.0,1.0,SUCCESS - All NAP data matches
Starved Rock State Park,+1 815-667-4726,"Oglesby, Oglesby, USA",Starved Rock State Park,(815) 667-4726,"Oglesby, IL 61348, USA",Yes,Yes,Yes,1.0,1.0,1.0,SUCCESS - All NAP data matches
"Solstice Chiropractic- Pediatric, Prenatal, & Family Wellness",+1 719-445-2346,"1945 Dominion Way Ste 100, Colorado Springs, USA","Solstice Chiropractic- Pediatric, Prenatal, & Family Wellness",(719) 445-2346,"1945 Dominion Way Ste 100, Colorado Springs, CO 80918, USA",Yes,Yes,Yes,1.0,1.0,1.0,SUCCESS - All NAP data matches
Dr. Debra Maibach - Chiropractor,+1 908-547-0729,"1390 Valley Rd #1C, Stirling, USA",Dr. Debra Maibach - Chiropractor,(908) 903-0111,"1390 Valley Rd #1C, Stirling, NJ 07980, USA",Yes,Yes,No,1.0,0.87,0.0,SUCCESS - Name & Address match (Phone missing/different)
Chiropractic & Therapy Center,+1 732-545-5999,"1075 Easton Ave, Somerset, USA",Chiropractic & Therapy Center,(732) 545-5999,"1075 Easton Ave, Somerset, NJ 08873, USA",Yes,Yes,Yes,1.0,1.0,1.0,SUCCESS - All NAP data matches
"Science Library, University of Saskatchewan",+1 306-966-1906,"Geology Bldg, 114 Science Pl, Saskatoon, USA","Science Library, University of Saskatchewan",(306) 966-1906,"Geology Bldg, 114 Science Pl, Saskatoon, SK S7N 5E2, Canada",Yes,Yes,Yes,1.0,0.833,1.0,SUCCESS - All NAP data matches
I Know My Chiro  Chiropractic Wellness,+1 609-448-6742,"35 E 38th St #1b, New York, USA","I Know My Chiro, Chiropractic Wellness",(212) 933-0188,"35 E 38th St #1b, New York, NY 10016, USA",Yes,Yes,No,1.0,0.862,0.0,SUCCESS - Name & Address match (Phone missing/different)
Integrative Chiropractic Center,+1 609-122-4814,"21B Stangl Rd, Flemington, USA",Integrative Chiropractic Center,(908) 343-6998,"21B Stangl Rd, Flemington, NJ 08822, USA",Yes,Yes,No,1.0,0.862,0.0,SUCCESS - Name & Address match (Phone missing/different)
Strive2Move Chiropractor,+1 908-547-0729,"1910 Washington Valley Rd STE 4, Martinsville, USA",Strive2Move Chiropractor,(908) 547-0729,"1910 Washington Valley Rd STE 4, Martinsville, NJ 08836, USA",Yes,Yes,Yes,1.0,0.914,1.0,SUCCESS - All NAP data matches
Align Chiropractic and Wellness Center,+1 908-967-4676,"1801 E 2nd St, Scotch Plains, USA",Align Chiropractic and Wellness Center,(908) 967-4676,"1801 E 2nd St, Scotch Plains, NJ 07076, USA",Yes,Yes,Yes,1.0,0.873,1.0,SUCCESS - All NAP data matches
Vida Chiropractic,+1 732-462-6689,"311 Chestnut St, Newark, USA",Vida Chiropractic,(973) 465-1500,"311 Chestnut St, Newark, NJ 07105, USA",Yes,Yes,No,1.0,0.852,0.0,SUCCESS - Name & Address match (Phone missing/different)
Sparrow Coffee,nan,USA,Sparrow Coffee Naperville,(630) 384-8940,"120 Water St #110, Naperville, IL 60540, USA",Yes,Yes,No,0.718,1.0,0.0,SUCCESS - Name & Address match (Phone missing/different)
Core testpractic,+1 718-275-1317,USA,Core Tests,(858) 333-1122,"6190 Yarrow Dr, Carlsbad, CA 92011, USA",No,Yes,No,0.692,1.0,0.0,FAIL - Significant NAP inconsistencies
Integrative testpractic Center,+1 609-122-4814,USA,"Integrative Health Practices, LLC",(410) 648-2555,"9501 Old Annapolis Rd Suite 205, Ellicott City, MD 21042, USA",No,Yes,No,0.71,1.0,0.0,FAIL - Significant NAP inconsistencies
Peak testpractic Neurology,+1 908-547-0729,USA,Peak Neurology,(719) 445-9902,"Suite 100, 5770 Flintridge Dr, Colorado Springs, CO 80918, USA",No,Yes,No,0.7,1.0,0.0,FAIL - Significant NAP inconsistencies
Hollenbach Family testpractic,+1 732-462-0049,USA,Hollenbach Family Chiropractic,(973) 236-0400,"250 Main St, Madison, NJ 07940, USA",Yes,Yes,No,0.847,1.0,0.0,SUCCESS - Name & Address match (Phone missing/different)
Deitch Family testpractic & Wellness Center,+1 908-967-4676,USA,Deitch Family Chiropractic & Wellness Center,(609) 897-1200,"50 Princeton Hightstown Rd, Princeton Junction, NJ 08550, USA",Yes,Yes,No,0.892,1.0,0.0,SUCCESS - Name & Address match (Phone missing/different)
Silverstein Family testpractic,+1 201-250-6125,USA,"Dr. Scott Silverstein, D.O.",(954) 943-5044,"729 E Atlantic Blvd, Pompano Beach, FL 33060, USA",No,Yes,No,0.481,1.0,0.0,FAIL - Significant NAP inconsistencies
Hollenbach Family Chiropractic,+1 732-462-0049,"250 Main St, Madison, USA",Hollenbach Family Chiropractic,(973) 236-0400,"250 Main St, Madison, NJ 07940, USA",Yes,Yes,No,1.0,0.836,0.0,SUCCESS - Name & Address match (Phone missing/different)
Forest Hills Chiropractic & Wellness,+1 732-389-8000,"71-36 110th St Ste Sp1, Forest Hills, USA",Forest Hills Chiropractic & Wellness,(718) 268-4464,"71-36 110th St Ste Sp1, Queens, NY 11375, USA",Yes,No,No,1.0,0.741,0.0,PARTIAL - Only Name matches
Honey Bun Café,nan,USA,Honey Bun Café,(306) 665-9901,"167C 2 Ave S, Saskatoon, SK S7K 1K6, Canada",Yes,No,No,1.0,0.093,0.0,PARTIAL - Only Name matches
Health on Main - Eopechino testpractic,+1 732-661-0330,USA,Health on Main - Eopechino Chiropractic,(973) 832-6722,"155 E Main St, Little Falls Township, NJ 07424, USA",Yes,Yes,No,0.877,1.0,0.0,SUCCESS - Name & Address match (Phone missing/different)
NY testpractic & Physical Therapy,+1 908-967-4676,USA,US ATHLETIC TRAINING CENTER,(212) 355-8440,"515 Madison Ave #301, New York, NY 10022, USA",No,Yes,No,0.414,1.0,0.0,FAIL - Significant NAP inconsistencies
Winkworth Beaconsfield Estate Agents,+44 1494 677978,"46 London End, Beaconsfield, USA",Winkworth Beaconsfield Estate Agents,01494 677978,"46 London End, Beaconsfield HP9 2JH, UK",Yes,No,Yes,1.0,0.836,1.0,PARTIAL - Name & Phone match (Address different)
The AskOzzie.com Real Estate Team Brokered by AEA Realty,+1 281-968-8444,"3901 East Pear Street, Pearland, USA",The AskOzzie.com Real Estate Team Brokered by AEA Realty,(281) 968-8444,"3901 E Pear St, Pearland, TX 77581, USA",Yes,No,Yes,1.0,0.771,1.0,PARTIAL - Name & Phone match (Address different)
This Place,nan,USA,,,,No,No,No,0.0,0.0,0.0,FAIL - No results found
"PVR Grand Mall, Velachery",+91 88009 00009,"137 Velachery - Tambaram Main Road, Chennai, USA","PVR Grand Mall, Velachery",088009 00009,"137, Velachery - Tambaram Main Rd, V.O.C Nagar, Doctor Seetaram Nagar, Velachery, Chennai, Tamil Nadu 600042, India",Yes,Yes,Yes,1.0,0.714,1.0,SUCCESS - All NAP data matches
mc donalds test,+1 306-717-4526,"2330 Kennedy Road, Toronto, USA",,,,No,No,No,0.0,0.0,0.0,FAIL - No results found
The Healthy Body,+1 732-534-3866,"271 Kelly Blvd, Staten Island, USA",The Healthy Body,(718) 698-5600,"271 Kelly Blvd, Staten Island, NY 10314, USA",Yes,Yes,No,1.0,1.0,0.0,SUCCESS - Name & Address match (Phone missing/different)
Hudson Valley Chiropractic,+1 908-547-0729,"475 Tuckahoe Rd #201, Yonkers, USA",Hudson Valley Chiropractic,(914) 793-1824,"475 Tuckahoe Rd #201, Yonkers, NY 10710, USA",Yes,Yes,No,1.0,0.873,0.0,SUCCESS - Name & Address match (Phone missing/different)
Cimato Chiropractic Center,+1 609-448-6740,"113 Maple Stream Rd, East Windsor, USA",Cimato Chiropractic Center,(609) 448-6740,"113 Maple Stream Rd, East Windsor, NJ 08520, USA",Yes,Yes,Yes,1.0,0.889,1.0,SUCCESS - All NAP data matches
Advanced Chiropractic Center of Woodbridge  INC,+1 732-634-5155,"415 Avenel St, Avenel, USA","Advanced Chiropractic Center of Woodbridge, INC",(732) 634-5155,"415 Avenel St, Avenel, NJ 07001, USA",Yes,Yes,Yes,1.0,0.842,1.0,SUCCESS - All NAP data matches
alpha test,nan,USA,AlphaTest Corporation,(360) 462-0201,"261 W Business Park Loop, Shelton, WA 98584, USA",No,Yes,No,0.581,1.0,0.0,FAIL - Significant NAP inconsistencies
Jamshedpur Workers' College,+91 657 236 0750,"Jai Prakash Narayan Setu Bridge, Jamshedpur, USA",Jamshedpur Workers' College,0657 236 0750,"Jai Prakash Narayan Setu Bridge, near Jayprakash, Kumar Basti, Mango, Jamshedpur, Jharkhand 832110, India",Yes,Yes,Yes,1.0,0.857,1.0,SUCCESS - All NAP data matches
MEGHALAYA ROOFING,nan,"INDUSTRIAL AREA, Umiam, USA",MEGHALAYA ROOFING,,"INDUSTRIAL AREA, Umiam, Meghalaya 793103, India",Yes,Yes,No,1.0,0.75,0.0,SUCCESS - Name & Address match (Phone missing/different)
Nucor Cold Finish,+1 435-734-9334,"1875 Utah 13, Brigham City, USA",Nucor Cold Finish,(435) 734-9334,"1875 UT-13, Brigham City, UT 84302, USA",Yes,No,Yes,1.0,0.831,1.0,PARTIAL - Name & Phone match (Address different)
Tyson Electrical Service,+1 306-341-0799,"530 Hogg Crescent, Saskatoon, USA",Tyson Electrical Service,(306) 341-0799,"530 Hogg Crescent, Saskatoon, SK S7N 3V6, Canada",Yes,Yes,Yes,1.0,0.8,1.0,SUCCESS - All NAP data matches
John D Wood & Co. Estate Agents Belgravia & Westminster,+44 20 3151 9484,"25 Elizabeth Street, London, USA",John D Wood & Co. Estate Agents Belgravia & Westminster,020 3151 9484,"25 Elizabeth St, London SW1W 9RP, UK",Yes,No,Yes,1.0,0.75,1.0,PARTIAL - Name & Phone match (Address different)
John D Wood & Co. Estate Agents Richmond,+44 20 3151 9452,"31 Sheen Road, Richmond, USA",John D Wood & Co. Estate Agents Richmond,020 3151 9452,"31 Sheen Rd, Richmond TW9 1AD, UK",Yes,No,Yes,1.0,0.772,1.0,PARTIAL - Name & Phone match (Address different)
John D Wood & Co. Estate Agents Herne Hill,+44 20 8196 9937,"323-327 Railton Road, London, USA",John D Wood & Co. Estate Agents Herne Hill,020 8196 9937,"323-327 Railton Rd, London SE24 0JN, UK",Yes,No,Yes,1.0,0.794,1.0,PARTIAL - Name & Phone match (Address different)
Shay’s Steaks,+1 267-804-7731,"200 North 16th Street, Philadelphia, USA",Shay’s Steaks,(267) 804-7731,"200 N 16th St, Philadelphia, PA 19102, USA",Yes,No,Yes,1.0,0.779,1.0,PARTIAL - Name & Phone match (Address different)
ben's test,+1 306-955-1447,"119 33rd Street West, Saskatoon, USA",,,,No,No,No,0.0,0.0,0.0,FAIL - No results found
WSP FREE MIGRATION FORM webspecialist (DONT DELETE OR MODIFY ),9899998695,"Chennai Metro Line 2, Chennai, USA",,,,No,No,No,0.0,0.0,0.0,FAIL - No results found
Nucor Tubular Products Chicago,+1 708-496-0380,"6226 74th Street, Chicago, USA",Nucor Tubular Products Chicago,(708) 496-0380,"6226 74th St, Chicago, IL 60638, USA",Yes,Yes,Yes,1.0,0.8,1.0,SUCCESS - All NAP data matches
Nucor Steel - Utah,+1 435-458-2300,"7285 W21200N W Cemetery Rd, Plymouth, USA",Nucor Steel Utah,(435) 458-2300,"7285 W21200N W Cemetery Rd, Plymouth, UT 84330, USA",Yes,Yes,Yes,1.0,0.897,1.0,SUCCESS - All NAP data matches
Furry Friends Spa and Daycare,+1 613-236-4005,"56 Hawthorne Avenue, Ottawa, USA",Furry Friends Spa and Daycare,(613) 236-4005,"56 Hawthorne Ave, Ottawa, ON K1S 0B1, Canada",Yes,No,Yes,1.0,0.732,1.0,PARTIAL - Name & Phone match (Address different)
Furry Paws,3062234567,"800 Avenue O South, Saskatoon, USA",Furbaby Pet Care,(306) 912-7783,"2902 Jasper Ave S, Saskatoon, SK S7J 4L7, Canada",No,No,No,0.538,0.519,0.0,FAIL - Significant NAP inconsistencies
Clint's Titan Gym,+1 306-438-2833,"Promethian Tower, Saskatoon, USA",Snap Fitness Saskatoon,(306) 242-7627,"420 Duchess St #4, Saskatoon, SK S7K 0R1, Canada",No,No,No,0.308,0.432,0.0,FAIL - Significant NAP inconsistencies
2 Dogs Barking,+1 306-765-4321,"123 Gimme, Food, Patsville, USA",Barking Dog,(212) 861-3600,"1453 York Ave, New York, NY 10075, USA",No,No,No,0.56,0.349,0.0,FAIL - Significant NAP inconsistencies
Ben's Other Broken Store,306 955 1401,"2325 Preston Ave S, Saskatoon, USA",Market Mall,(306) 374-2644,"2325 Preston Ave S, Saskatoon, SK S7J 2G2, Canada",No,No,No,0.229,0.795,0.0,FAIL - Significant NAP inconsistencies
Nucor Steel - Utah,+1 435-458-2300,"7285 W21200N W Cemetery Rd, Plymouth, USA",Nucor Steel Utah,(435) 458-2300,"7285 W21200N W Cemetery Rd, Plymouth, UT 84330, USA",Yes,Yes,Yes,1.0,0.897,1.0,SUCCESS - All NAP data matches
Cylex,+40 712 345 678,"Strada Crișului 11, Oradea, USA",Cylex,,"Strada Crișului 11, Oradea 410195, Romania",Yes,No,No,1.0,0.783,0.0,PARTIAL - Only Name matches
WordPress Premium Hosting - Test by Ganesh,+1-212-456-7890,"Wdcf Drive, Dade City, USA","WP1stop - Core Web Vital Consultant, PageSpeed . Marketing, Wordpress Development",(386) 506-7930,"6421 N Florida Ave D-322, Tampa, FL 33604, USA",No,No,No,0.226,0.388,0.0,FAIL - Significant NAP inconsistencies
Smith testpractic Family Care & Sports Injury Center,+1 609-448-6743,USA,Smith Chiropractic Family Care & Sports Injury Center,(908) 464-8899,"261 Springfield Ave Suite 202, Berkeley Heights, NJ 07922, USA",Yes,Yes,No,0.911,1.0,0.0,SUCCESS - Name & Address match (Phone missing/different)
Vida testpractic,+1 732-462-6689,USA,,,,No,No,No,0.0,0.0,0.0,FAIL - No results found
Air Conditioning Doctors,3054460940,"8315 NW 64th St Ste 8, Miami, USA",Air Doctor,(305) 446-0940,"8315 NW 64th St, Miami, FL 33166, USA",No,No,Yes,0.588,0.769,1.0,FAIL - Significant NAP inconsistencies
"Air Time Services, Inc.",9548185066,"336 NW 19th St, Pompano Beach, USA",Prime Time Cooling,(954) 864-3725,"1930 NW 18th St Bay #5-15, Pompano Beach, FL 33069, USA",No,No,No,0.513,0.699,0.0,FAIL - Significant NAP inconsistencies
Rehab testpractic Network,+1 908-754-6888,USA,,,,No,No,No,0.0,0.0,0.0,FAIL - No results found
Aura testpractic,+1 732-704-3459,USA,Aura,044 4215 4576,"New No.13, Moores Garden Road, 1st floor, Thousand Lights West, Nungambakkam, Chennai, Tamil Nadu 600006, India",Yes,Yes,No,0.4,1.0,0.0,SUCCESS - Name & Address match (Phone missing/different)
Parkside Cafe,+1 727-546-3600,"8180 49th Street North, Pinellas Park, USA",Parkside Cafe,(727) 546-3600,"8180 49th St N, Pinellas Park, FL 33781, USA",Yes,Yes,Yes,1.0,0.79,1.0,SUCCESS - All NAP data matches
New Providence Chiropractic,+1 908-547-0729,"133 Gales Dr, New Providence, USA",New Providence Chiropractic,(908) 665-1818,"133 Gales Dr, New Providence, NJ 07974, USA",Yes,Yes,No,1.0,0.873,0.0,SUCCESS - Name & Address match (Phone missing/different)
Monmouth Spine and Wellness,+1 732-661-0330,"342 US-9, Manalapan Township, USA",Monmouth Spine and Wellness,(732) 252-5555,"342 US-9, Manalapan Township, NJ 07726, USA",Yes,Yes,No,1.0,0.873,0.0,SUCCESS - Name & Address match (Phone missing/different)
Health on Main - Eopechino Chiropractic,+1 732-661-0330,"155 E Main St, Little Falls Township, USA",Health on Main - Eopechino Chiropractic,(973) 832-6722,"155 E Main St, Little Falls Township, NJ 07424, USA",Yes,Yes,No,1.0,0.897,0.0,SUCCESS - Name & Address match (Phone missing/different)
Functional Health,+1 732-462-0049,"1 Eastern Ave, Somerville, USA",Functional Health,(908) 722-0500,"1 Eastern Ave, Somerville, NJ 08876, USA",Yes,Yes,No,1.0,0.862,0.0,SUCCESS - Name & Address match (Phone missing/different)
Dynamic Chiropractic LLC,+1 732-545-5999,"720 E Main St Ste 1D, Moorestown, USA",Dynamic Chiropractic,(856) 222-1500,"720 E Main St, Moorestown, NJ 08057, USA",Yes,No,No,0.909,0.778,0.0,PARTIAL - Only Name matches
Blitz Chiropractic Center,+1 609-395-0880,"100 Overlook Dr, Monroe Township, USA",Blitz Chiropractic Center,(609) 395-0880,"100 Overlook Dr, Monroe Township, NJ 08831, USA",Yes,Yes,Yes,1.0,0.886,1.0,SUCCESS - All NAP data matches
Park Chiropractic & Posture,+1 732-389-8000,"85 Raritan Ave Suite 430, Highland Park, USA",Park Chiropractic & Posture,(732) 342-7575,"85 Raritan Ave Suite 430, Highland Park, NJ 08904, USA",Yes,Yes,No,1.0,0.903,0.0,SUCCESS - Name & Address match (Phone missing/different)
Louro Chiropractic Center,+1 732-545-5999,"180 N County Line Rd, Jackson Township, USA",Louro Chiropractic Center,(732) 928-5900,"180 N County Line Rd, Jackson Township, NJ 08527, USA",Yes,Yes,No,1.0,0.901,0.0,SUCCESS - Name & Address match (Phone missing/different)
Genesis Chiropractic Center (William J. Voyce  DC),+1 732-704-3459,"59 E Mill Rd # 102, Long Valley, USA","Genesis Chiropractic Center (William J. Voyce, DC)",(908) 876-9188,"59 E Mill Rd # 102, Long Valley, NJ 07853, USA",Yes,Yes,No,1.0,0.877,0.0,SUCCESS - Name & Address match (Phone missing/different)
Story Garden Children's Library & Learning Center,nan,"1103 8 St E, Saskatoon, USA",Story Garden Children's Library & Learning Center,,"1103 8 St E, Saskatoon, SK S7H 0S3, Canada",Yes,No,No,1.0,0.75,0.0,PARTIAL - Only Name matches
HKK,+91 99999 99999,"Agra - Lucknow Expressway, Deeg, USA",Agra Lucknow expressway - G.T. Road cut,,"W25G+MQV, Agra - Lucknow Expy, Birthi Haveli, Uttar Pradesh 209202, India",No,No,No,0.051,0.404,0.0,FAIL - Significant NAP inconsistencies
United States Botanic Garden,+1 202-225-8333,"100 Maryland Avenue Southwest, Washington, USA",United States Botanic Garden,(202) 225-8333,"100 Maryland Ave SW, Washington, DC 20001, USA",Yes,No,Yes,1.0,0.782,1.0,PARTIAL - Name & Phone match (Address different)
Vendasta,+1 306-955-5512,"410 22 Street East, Saskatoon, USA",Vendasta,(306) 955-5512,"Saskatoon Square, 410 22 St E, Saskatoon, SK S7K 5T6, Canada",Yes,No,Yes,1.0,0.545,1.0,PARTIAL - Name & Phone match (Address different)
LyS,nan,USA,,,,No,No,No,0.0,0.0,0.0,FAIL - No results found
McDonald's,+1 306-955-8669,"1608 8 St E, Saskatoon, USA",McDonald's,(306) 955-8669,"1608 8 St E, Saskatoon, SK S7H 0T3, Canada",Yes,No,Yes,1.0,0.75,1.0,PARTIAL - Name & Phone match (Address different)
KFC Yum! Center,+1 502-690-9000,"1 Arena Plaza, Louisville, USA",KFC Yum! Center,(502) 690-9000,"1 Arena Plaza, Louisville, KY 40202, USA",Yes,Yes,Yes,1.0,0.862,1.0,SUCCESS - All NAP data matches
John D Wood & Co. Estate Agents Surbiton and CHK Mountford Lettings,+44 20 8215 8848,"81a Victoria Road, Surbiton, USA",CHK Mountford Letting Agents Surbiton,020 8390 7745,"81a Victoria Rd, Surbiton KT6 4NS, UK",No,No,No,0.436,0.8,0.0,FAIL - Significant NAP inconsistencies
John D Wood & Co. Estate Agents Wandsworth,+44 20 3151 4263,"324 Trinity Road, London, USA",John D Wood & Co. Estate Agents Wandsworth,020 3151 4263,"324 Trinity Rd, London SW18 3RG, UK",Yes,No,Yes,1.0,0.767,1.0,PARTIAL - Name & Phone match (Address different)
John D Wood & Co. Estate Agents Cobham,+44 1932 645158,"2 Church Street, Cobham, USA",John D Wood & Co. Estate Agents Cobham,01932 645158,"2 Church St, Cobham KT11 3EG, UK",Yes,No,Yes,1.0,0.714,1.0,PARTIAL - Name & Phone match (Address different)
John D Wood & Co. Estate Agents Weybridge,+44 1932 645197,"7 Baker Street, Weybridge, USA",John D Wood & Co. Estate Agents Weybridge,01932 645197,"7 Baker St, Weybridge KT13 8AF, UK",Yes,No,Yes,1.0,0.733,1.0,PARTIAL - Name & Phone match (Address different)
Jilly's,+1 410-653-0610,"1010 Reisterstown Road, Pikesville, USA",Jilly's,(410) 653-0610,"1010 Reisterstown Rd, Pikesville, MD 21208, USA",Yes,Yes,Yes,1.0,0.864,1.0,SUCCESS - All NAP data matches
Tim Hortons,+1 905-678-0151,"5889 Airport Road, Mississauga, USA",Tim Hortons,(905) 678-0151,"5889 Airport Rd, Mississauga, ON N0K 1M0, Canada",Yes,No,Yes,1.0,0.744,1.0,PARTIAL - Name & Phone match (Address different)
Shillong College,+91 364 222 4903,"Bomfyle Road, Shillong, USA",Shillong College,0364 222 4903,"HVFV+454, Bomfyle Road, Laitumkhrah, Shillong, Meghalaya 793003, India",Yes,Yes,Yes,1.0,0.75,1.0,SUCCESS - All NAP data matches
ash test,nan,"{{Mail Address 1}}, USA",,,,No,No,No,0.0,0.0,0.0,FAIL - No results found
Badger Test,+13068800001,"109 8th Street E., Saskatoon, USA","Badger Infrastructure Solutions - Martensville, SK",(306) 570-2428,"115 Premium Way, Corman Park No. 344, SK S7J 5J7, Canada",No,No,No,0.345,0.22,0.0,FAIL - Significant NAP inconsistencies
Vimal Test,nan,USA,,,,No,No,No,0.0,0.0,0.0,FAIL - No results found
Nucor Tubular Products Chicago,+1 708-496-0380,"6226 74th Street, Chicago, USA",Nucor Tubular Products Chicago,(708) 496-0380,"6226 74th St, Chicago, IL 60638, USA",Yes,Yes,Yes,1.0,0.8,1.0,SUCCESS - All NAP data matches
Nucor Steel - Utah,+1 435-458-2300,"7285 W21200N W Cemetery Rd, Plymouth, USA",Nucor Steel Utah,(435) 458-2300,"7285 W21200N W Cemetery Rd, Plymouth, UT 84330, USA",Yes,Yes,Yes,1.0,0.897,1.0,SUCCESS - All NAP data matches
Rehab Chiropractic Network,+1 908-754-6888,"2493 Lamington Rd Suite B, Bedminster, USA",Rehab Chiropractic Network,(908) 375-8853,"2493 Lamington Rd Suite B, Bedminster, NJ 07921, USA",Yes,Yes,No,1.0,0.899,0.0,SUCCESS - Name & Address match (Phone missing/different)
Popup Bagels,+1 203-297-8819,"177 Thompson Street, New York, USA",Popup Bagels,(203) 297-8819,"177 Thompson St, New York, NY 10012, USA",Yes,Yes,Yes,1.0,0.833,1.0,SUCCESS - All NAP data matches
ProActive Chiropractic Center,+1 908-967-4676,"700 US-130 #107, Cinnaminson, USA",ProActive Chiropractic Center,(856) 829-8100,"700 US-130 #107, Cinnaminson, NJ 08077, USA",Yes,Yes,No,1.0,0.87,0.0,SUCCESS - Name & Address match (Phone missing/different)
Atlas Gentle Effective Chiropractic LLC,+1 732-462-6686,"124 W Main St, Freehold, USA",Atlas Gentle Effective Chiropractic LLC,(732) 462-6686,"124 W Main St, Freehold, NJ 07728, USA",Yes,Yes,Yes,1.0,0.852,1.0,SUCCESS - All NAP data matches
Chiropractic Associates LLC,+1 609-448-6744,"1240 N Pitt St # 100, Alexandria, USA",Chiropractic Associates LLC,(703) 739-0456,"1240 N Pitt St # 100, Alexandria, VA 22314, USA",Yes,Yes,No,1.0,0.88,0.0,SUCCESS - Name & Address match (Phone missing/different)
Align testpractic and Wellness Center,+1 908-967-4676,USA,Align Wellness Center,(224) 287-9295,"666 Dundee Rd Building 400 Suite 401, Northbrook, IL 60062, USA",No,Yes,No,0.724,1.0,0.0,FAIL - Significant NAP inconsistencies
Cimato testpractic Center,+1 609-448-6740,USA,,,,No,No,No,0.0,0.0,0.0,FAIL - No results found
Association of NJ testpractors,+1 201-250-6124,USA,Association of NJ Chiropractors,(908) 722-5678,"77 Brant Ave #210, Clark, NJ 07066, USA",Yes,Yes,No,0.852,1.0,0.0,SUCCESS - Name & Address match (Phone missing/different)
Hudson Valley testpractic,+1 908-547-0729,USA,DMV,(800) 698-2931,"Warren St, Hudson, NY 12534, USA",No,Yes,No,0.143,1.0,0.0,FAIL - Significant NAP inconsistencies
Drinkle Mall,+1 306-361-4267,"115 3 Avenue South, Saskatoon, USA",Drinkle Mall,(306) 361-4267,"115 3 Ave S, Saskatoon, SK S7K 1L6, Canada",Yes,No,Yes,1.0,0.676,1.0,PARTIAL - Name & Phone match (Address different)
Edison testpractic,+1 732-661-0330,USA,Eurofins Environment Testing-Edison,(732) 549-3900,"777 New Durham Rd, Edison, NJ 08817, USA",No,Yes,No,0.226,1.0,0.0,FAIL - Significant NAP inconsistencies
Next Level testpractic and Nutrition,+1 732-389-8000,USA,NXT Level Supplements,(386) 293-1197,"South, 1725 S Nova Rd STE A6, Daytona Beach, FL 32119, USA",No,Yes,No,0.421,1.0,0.0,FAIL - Significant NAP inconsistencies
McDonald's,3069558669,"1608 8 St E, Saskatoon, USA",McDonald's,(306) 955-8669,"1608 8 St E, Saskatoon, SK S7H 0T3, Canada",Yes,No,Yes,1.0,0.75,1.0,PARTIAL - Name & Phone match (Address different)
Genesis testpractic Center (William J. Voyce  DC),+1 732-704-3459,USA,"Genesis Chiropractic Center (William J. Voyce, DC)",(908) 876-9188,"59 E Mill Rd # 102, Long Valley, NJ 07853, USA",Yes,Yes,No,0.901,1.0,0.0,SUCCESS - Name & Address match (Phone missing/different)
Mind Over Matter testpractic & Wellness,+1 201-250-6126,USA,,,,No,No,No,0.0,0.0,0.0,FAIL - No results found
Hershey Family testpractic,+1 732-634-5155,USA,"Family Practice Center, PC",(717) 835-0700,"75 E Derry Rd, Hershey, PA 17033, USA",No,Yes,No,0.549,1.0,0.0,FAIL - Significant NAP inconsistencies
West Park testpractic Ctr.,+1 732-661-0330,USA,,,,No,No,No,0.0,0.0,0.0,FAIL - No results found
Home Care testpractic,+1 732-583-0600,USA,,,,No,No,No,0.0,0.0,0.0,FAIL - No results found
Dj Test@ Profissional,+55 11 97124-4109,"Travessa dos Pontífices, 35, Jardim Nossa Senhora Aparecida, USA",Dj Test@ Profissional,(11) 97124-4109,"Tv. dos Pontífices, 35 - Jardim Nossa Sra. Aparecida, Francisco Morato - SP, 07936-050, Brazil",Yes,No,Yes,1.0,0.69,1.0,PARTIAL - Name & Phone match (Address different)
Armadi Closets | Custom Closets,+1 305-466-1101,"2657 NE 189th Terrace, Aventura, USA",Armadi Closets Custom Closets,(305) 466-1101,"2657 NE 189th Terrace, Aventura, FL 33180, USA",Yes,Yes,Yes,1.0,0.883,1.0,SUCCESS - All NAP data matches
Eden Charitable Trust,+91 44 2247 1777,"Spring Field No: B1 5/478 D Dr. Ambedkar Street, Road, Chennai, USA",Eden Charitable Trust,044 2247 1777,"Spring Field No: B1 5/478 D Dr. Ambedkar Street, Road, Nanmangalam, Medavakkam, Chennai, Tamil Nadu 600129, India",Yes,No,Yes,1.0,0.731,1.0,PARTIAL - Name & Phone match (Address different)
HomeQuarter Coffeehouse & Bakery,+1 306-975-2010,"405 Avenue B South #110, Saskatoon, USA",HomeQuarter Coffeehouse & Bakery,(306) 975-2010,"405 Avenue B S #110, Saskatoon, SK S7M 5N3, Canada",Yes,No,Yes,1.0,0.756,1.0,PARTIAL - Name & Phone match (Address different)
Braeden's Test - Do Not Touch or Delete,3062279834,"1 Aspen St, Humboldt, USA",,,,No,No,No,0.0,0.0,0.0,FAIL - No results found
Lockwood Distilling Company,nan,"dcasd, USA",Lockwood Distilling Company - Richardson,(469) 399-1599,"506 Lockwood Dr suite a, Richardson, TX 75080, USA",Yes,No,No,0.831,0.5,0.0,PARTIAL - Only Name matches
John D Wood Country House Department,nan,"59 Cadogan Street, USA",John D Wood & Co. Estate Agents Cadogan Street,020 3151 4149,"59 Cadogan St, London SW3 2QJ, UK",No,No,No,0.532,0.577,0.0,FAIL - Significant NAP inconsistencies
Pique,nan,"130 4th Ave N, Saskatoon, USA",,,,No,No,No,0.0,0.0,0.0,FAIL - No results found
"Zaitoon Restaurant, Salwa Road",+974 4414 7676,"Al Muntazah, Doha, USA","Zaitoon Restaurant, Salwa Road",4414 7676,"Al Muntazah, Doha, Qatar",Yes,Yes,Yes,1.0,0.857,0.9,SUCCESS - All NAP data matches
Test company 3,nan,USA,"Company 3, Expo",(310) 255-6600,"3401 Exposition Blvd, Santa Monica, CA 90404, USA",No,Yes,No,0.643,1.0,0.0,FAIL - Significant NAP inconsistencies
New York Chiropractic Life Center,+1 732-462-0049,"91 Central Park W, New York, USA",New York Chiropractic Life Center / Disc Center of America NYC,(212) 580-3350,"91 Central Prk W, New York, NY 10023, USA",Yes,Yes,No,0.71,0.853,0.0,SUCCESS - Name & Address match (Phone missing/different)
Aura Chiropractic,+1 732-704-3459,"1148 N Irving St, Arlington, USA",Aura Chiropractic,(703) 544-0055,"1148 N Irving St, Arlington, VA 22201, USA",Yes,Yes,No,1.0,0.87,0.0,SUCCESS - Name & Address match (Phone missing/different)
Mind Over Matter Chiropractic & Wellness,+1 201-250-6126,"38 Main St, High Bridge, USA",Mind Over Matter Chiropractic & Wellness,(908) 617-5052,"38 Main St, High Bridge, NJ 08829, USA",Yes,Yes,No,1.0,0.852,0.0,SUCCESS - Name & Address match (Phone missing/different)
Paul B. Goldstein  DC,+1 732-280-1800,"495 Union Ave #1b, Middlesex, USA","Paul B. Goldstein, DC",(732) 271-0400,"495 Union Ave #1b, Middlesex, NJ 08846, USA",Yes,Yes,No,1.0,0.87,0.0,SUCCESS - Name & Address match (Phone missing/different)
Association of NJ Chiropractors,+1 201-250-6124,"77 Brant Ave #210, Clark, USA",Association of NJ Chiropractors,(908) 722-5678,"77 Brant Ave #210, Clark, NJ 07066, USA",Yes,Yes,No,1.0,0.852,0.0,SUCCESS - Name & Address match (Phone missing/different)
Optimize Spine & Wellness,+1 908-754-6888,"65 Mountain Blvd Ste 202-204, Warren, USA",Optimize Spine & Wellness,(732) 377-9141,"65 Mountain Blvd Ste 202-204, Warren, NJ 07059, USA",Yes,Yes,No,1.0,0.897,0.0,SUCCESS - Name & Address match (Phone missing/different)
Atlas Chiropractic Wellness Center,+1 201-250-6122,"106 Center St, Garwood, USA",Atlas Chiropractic Wellness Center,(201) 250-6122,"106 Center St, Garwood, NJ 07027, USA",Yes,Yes,Yes,1.0,0.847,1.0,SUCCESS - All NAP data matches
Back to Health Chiropractic & Wellness Center,+1 609-278-2566,"506 Hamburg Tpke #202, Wayne, USA",Back to Health Chiropractic & Wellness Center,(973) 595-1809,"506 Hamburg Tpke #202, Wayne, NJ 07470, USA",Yes,Yes,No,1.0,1.0,0.0,SUCCESS - Name & Address match (Phone missing/different)
Integrative Chiropractic Center,+1 908-272-4011,"3322 US-22 #1106, Branchburg, USA",Integrative Chiropractic Center,(908) 722-2274,"3322 US-22 #1106, Branchburg, NJ 08876, USA",Yes,Yes,No,1.0,0.87,0.0,SUCCESS - Name & Address match (Phone missing/different)
Time For A Bagel,+1 973-984-5885,"680 Speedwell Avenue, Morris Plains, USA",Time For A Bagel,(973) 984-5885,"680 Speedwell Ave, Morris Plains, NJ 07950, USA",Yes,Yes,Yes,1.0,0.854,1.0,SUCCESS - All NAP data matches
Los Angeles International Airport,(855) 463-5252,"1 World Wy, Los Angeles, USA",Los Angeles International Airport,(855) 463-5252,"1 World Wy, Los Angeles, CA 90045, USA",Yes,Yes,Yes,1.0,0.852,1.0,SUCCESS - All NAP data matches
John D Wood & Co. Estate Agents Battersea,+44 20 3151 4251,"501 Battersea Park Road, London, USA",John D Wood & Co. Estate Agents Battersea,020 3151 4251,"501 Battersea Park Rd, London SW11 4LW, UK",Yes,No,Yes,1.0,0.811,1.0,PARTIAL - Name & Phone match (Address different)
Green Trends Unisex Hair & Style Salon,+91 70223 96817,"9th Main Road No. 172 First Floor, Bengaluru, USA",Green Trends Unisex Hair & Style Salon,070223 96817,"First Floor, No. 172, 9th Main Rd, Sector 7, HSR Layout, Bengaluru, Karnataka 560102, India",Yes,No,Yes,1.0,0.667,1.0,PARTIAL - Name & Phone match (Address different)
John D Wood & Co. Estate Agents South Kensington,+44 20 3151 9474,"125 Gloucester Road, London, USA",John D Wood & Co. Estate Agents South Kensington,020 3151 9474,"125 Gloucester Rd, South Kensington, London SW7 4TE, UK",Yes,No,Yes,1.0,0.634,1.0,PARTIAL - Name & Phone match (Address different)
John D Wood & Co. Estate Agents Southfields,+44 20 3151 4310,"21 Replingham Road, London, USA",John D Wood & Co. Estate Agents Southfields,020 3151 4310,"21 Replingham Rd, London SW18 5LT, UK",Yes,No,Yes,1.0,0.781,1.0,PARTIAL - Name & Phone match (Address different)
John D Wood & Co. Estate Agents Kensington,+44 20 3151 9448,"162 Kensington Church Street, London, USA",John D Wood & Co. Estate Agents South Kensington,020 3151 9474,"125 Gloucester Rd, South Kensington, London SW7 4TE, UK",Yes,No,No,0.929,0.484,0.0,PARTIAL - Only Name matches
John D Wood & Co. Estate Agents Oxford,+44 1865 575039,"235 Banbury Road, Oxford, USA",John D Wood & Co. Estate Agents Oxford,01865 575039,"235 Banbury Rd, Summertown, Oxford OX2 7HN, UK",Yes,No,Yes,1.0,0.657,1.0,PARTIAL - Name & Phone match (Address different)
John D Wood & Co. Letting Agents Chelsea,+44 20 3369 1373,"296 King's Road, London, USA",John D Wood & Co. Estate Agents Chelsea Green,020 3369 1343,"9, 11 Cale St, London SW3 3QS, UK",Yes,No,No,0.835,0.464,0.0,PARTIAL - Only Name matches
ONYX Air Lounge & Kitchen,+91 80503 01111,"MG Road Kayarmanj, Mangaluru, USA",ONYX Air Lounge & Kitchen,080503 01111,"Kayarmanj, MG Rd, Ballalbagh, Kodailbail, Mangaluru, Karnataka 575003, India",Yes,No,Yes,1.0,0.416,1.0,PARTIAL - Name & Phone match (Address different)
Real Title Agency,nan,USA,The Real Title,(786) 400-2539,"5966 S Dixie Hwy, Miami, FL 33143, USA",No,Yes,No,0.645,1.0,0.0,FAIL - Significant NAP inconsistencies
A2B Indian Veg Restaurant - Illinois,+1 630-791-8800,"28244 Diehl Road, Warrenville, USA",A2B Indian Veg Restaurant - Illinois,(630) 791-8800,"28244 Diehl Rd, Warrenville, IL 60555, USA",Yes,Yes,Yes,1.0,0.845,1.0,SUCCESS - All NAP data matches
Advanced Chiropractic Center of Woodbridge  INC,+1 732-634-5155,"415 Avenel St, Avenel, USA","Advanced Chiropractic Center of Woodbridge, INC",(732) 634-5155,"415 Avenel St, Avenel, NJ 07001, USA",Yes,Yes,Yes,1.0,0.842,1.0,SUCCESS - All NAP data matches
Atlas Gentle Effective testpractic LLC,+1 732-462-6686,USA,Atlas Gentle Effective Chiropractic LLC,(732) 462-6686,"124 W Main St, Freehold, NJ 07728, USA",Yes,Yes,Yes,0.883,1.0,1.0,SUCCESS - All NAP data matches
Total Life testpractic & Wellness,+1 609-161-4252,USA,,,,No,No,No,0.0,0.0,0.0,FAIL - No results found
Dr. Debra Maibach - testpractor,+1 908-547-0729,USA,Dr. Debra Maibach - Chiropractor,(908) 903-0111,"1390 Valley Rd #1C, Stirling, NJ 07980, USA",Yes,Yes,No,0.842,1.0,0.0,SUCCESS - Name & Address match (Phone missing/different)
testPlus Wellness Center,+1 908-272-4008,USA,HealthPlus Diagnostic & Wellness Center,(281) 888-7458,"4102 Richmond Ave. Ste C, Houston, TX 77027, USA",No,Yes,No,0.689,1.0,0.0,FAIL - Significant NAP inconsistencies
Healthwave testpractic,+1 732-583-0600,USA,Healthwaves Corporation Wellness Team,(480) 968-1886,"1615 W University Dr Suite #137, Tempe, AZ 85281, USA",No,Yes,No,0.475,1.0,0.0,FAIL - Significant NAP inconsistencies
NJBack testpractic Center,+1 908-272-4009,USA,NJBack Chiropractic Center,(973) 874-9777,"47 Hamburg Turnpike, Riverdale, NJ 07457, USA",Yes,Yes,No,0.824,1.0,0.0,SUCCESS - Name & Address match (Phone missing/different)
About You testpractic,+1 732-583-0600,USA,"Veranda Race for TNPSC, Bank, SSC & RRB Exam Coaching Institute in Chennai",090433 03030,"808, Anna Salai, CIT Nagar West, CIT Nagar, Chennai, Tamil Nadu 600035, India",No,No,No,0.176,0.054,0.0,FAIL - Significant NAP inconsistencies
Catalyst & Quill,9342167687,"Navalur Road, Navalur, USA",,,,No,No,No,0.0,0.0,0.0,FAIL - No results found
McDonald's,3069558660,"2225 22 St W, Saskatoon, USA",McDonald's,(306) 955-8660,"2225 22 St W, Saskatoon, SK S7M 0V5, Canada",Yes,No,Yes,1.0,0.758,1.0,PARTIAL - Name & Phone match (Address different)
"Astute Management Solutions, LLC",7727136597,"640 24th Pl SW, Vero Beach, USA",,,,No,No,No,0.0,0.0,0.0,FAIL - No results found
The test Studio,+1 732-634-5155,USA,NA,(657) 565-1007,"14761 Franklin Ave # E, Tustin, CA 92780, USA",No,Yes,No,0.0,1.0,0.0,FAIL - Significant NAP inconsistencies
Ishitani Health Center,+1 732-534-3866,"1600 Parker Ave, Fort Lee, USA",Ishitani Health Center,(201) 302-9993,"1600 Parker Ave, Fort Lee, NJ 07024, USA",Yes,Yes,No,1.0,1.0,0.0,SUCCESS - Name & Address match (Phone missing/different)
Dreicer Chiropractic and Wellness Center,+1 732-574-2226,"711 Sycamore Ave, Red Bank, USA",Dreicer Chiropractic and Wellness Center,(732) 758-9666,"711 Sycamore Ave, Red Bank, NJ 07701, USA",Yes,Yes,No,1.0,1.0,0.0,SUCCESS - Name & Address match (Phone missing/different)
Healthwave Chiropractic,+1 732-583-0600,"Boro, Point Pleasant, USA",Healthwave Chiropractic,(732) 714-9283,"Boro, 2911 NJ-88 STE 5, Point Pleasant, NJ 08742, USA",Yes,Yes,No,1.0,1.0,0.0,SUCCESS - Name & Address match (Phone missing/different)
ChiroPlus Wellness Center,+1 908-272-4008,"3883 County Rd 516, Old Bridge, USA",ChiroPlus Wellness Center,(732) 290-8950,"3883 County Rd 516, Old Bridge, NJ 08857, USA",Yes,Yes,No,1.0,0.88,0.0,SUCCESS - Name & Address match (Phone missing/different)
Salutogenesis Chiropractic,+1 732-462-6690,"135 Main St #101, Madison, USA",,,,No,No,No,0.0,0.0,0.0,FAIL - No results found
Murray Chiropractic,+1 732-574-2229,"10 Anderson Rd, Clinton, USA",John G. Murray Jr. Chiropractic,(908) 638-4144,"10 Anderson Rd, Clinton, NJ 08809, USA",No,Yes,No,0.792,0.852,0.0,FAIL - Significant NAP inconsistencies
Upper Cervical Chiropractic New Jersey,+1 732-280-1800,"101 Union Ave, Middlesex, USA",Upper Cervical Chiropractic New Jersey,(732) 314-1580,"101 Union Ave, Middlesex, NJ 08846, USA",Yes,Yes,No,1.0,1.0,0.0,SUCCESS - Name & Address match (Phone missing/different)
Affordable Chiropractic,+1 908-754-6888,"736 Mountain Blvd, Watchung, USA",Affordable Chiropractic,(908) 754-6888,"736 Mountain Blvd, Watchung, NJ 07069, USA",Yes,Yes,Yes,1.0,1.0,1.0,SUCCESS - All NAP data matches
City Perks Coffeehouse,nan,USA,City Perks Coffeehouse,(306) 664-2060,"801 7 Ave N, Saskatoon, SK S7K 2V5, Canada",Yes,No,No,1.0,0.095,0.0,PARTIAL - Only Name matches
